{"type":"FeatureCollection","features":[{"type":"Feature","id":"lakes-0","properties":{"id":1,"name":"God's Eye","continent":"Westeros","layer":"lakes","fid":"lakes-0","slug":"god-s-eye"},"geometry":{"type":"Polygon","coordinates":[[[16.729449331091264,8.23509073771065],[17.05075901731227,8.238583234300009],[17.11362395592073,8.18968828204899],[17.23935383313765,8.04998841847464],[17.35460622058649,7.892826071953493],[17.543201036411862,7.892826071953493],[17.630513451145834,7.840438623113116],[17.682900899986215,7.746141215200424],[17.658453423860703,7.630888827751583],[17.60955847160968,7.533098923249533],[17.567648512537374,7.421339032390058],[17.61305096819904,7.306086644941217],[17.654960927271347,7.274654175636989],[17.654960927271347,7.169879277956227],[17.623528457967115,7.047641897328667],[17.64099094091391,6.921912020111748],[17.539708539822506,6.810152129252266],[17.43493364214174,6.698392238392778],[17.242846329727005,6.6355272997843215],[17.019326548008046,6.632034803194962],[16.869149194665617,6.569169864586513],[16.715743519781753,6.411214188267337],[16.70500185496575,6.534244898692926],[16.687539372018957,6.796182142894828],[16.65261440612537,6.907942033754317],[16.53736201867653,7.1209843257052015],[16.519899535729735,7.267669182458263],[16.481482073246788,7.42832402556877],[16.519899535729735,7.5854863720899175],[16.52688452890845,7.718201242485556],[16.457034597121275,7.875363589006703],[16.488467066425507,7.941721024204519],[16.610704447053063,8.011570955991694],[16.65261440612537,8.140793329797972],[16.684046875429598,8.186195785459631],[16.729449331091264,8.23509073771065]]]}},{"type":"Feature","id":"lakes-1","properties":{"id":2,"name":"Red Lake","continent":"Westeros","layer":"lakes","fid":"lakes-1","slug":"red-lake"},"geometry":{"type":"Polygon","coordinates":[[[8.364919999576934,1.361857449852522],[8.439350612191582,1.4023026217627717],[8.52208234609808,1.4072599055141808],[8.60939476083205,1.4421848714077683],[8.679244692619225,1.4177373952822663],[8.742109631227684,1.3583649532631625],[8.721154651691531,1.292007518065347],[8.672259699440508,1.2186650896888125],[8.570977298349103,1.2431125658143145],[8.49064987679385,1.2186650896888125],[8.427784938185392,1.1627851442590682],[8.329995033683344,1.1488151579016375],[8.28808507461104,1.1977101101526557],[8.354442509808857,1.2710525385291902],[8.364919999576934,1.361857449852522]]]}},{"type":"Feature","id":"lakes-2","properties":{"id":3,"name":null,"continent":"Westeros","layer":"lakes","fid":"lakes-2"},"geometry":{"type":"Polygon","coordinates":[[[11.341627906976727,23.910968992248158],[11.344019590299993,24.014190328433706],[11.340527093710634,24.1503976954187],[11.35449708006807,24.25866508968882],[11.427839508444604,24.318037531707922],[11.515151923178573,24.356454994190866],[11.518644419767933,24.41233493962061],[11.598971841323184,24.457737395282273],[11.717716725361383,24.496154857765223],[11.78756665714856,24.517109837301373],[11.881864065061247,24.56251229296304],[11.965683983205858,24.510124844122657],[12.0215639286356,24.447259905514198],[12.035533914993035,24.391379960084453],[12.004101445688805,24.304067545350485],[11.958698990027143,24.23771011015267],[11.972668976384576,24.199292647669722],[12.035533914993035,24.167860178365494],[12.091413860422776,24.16087518518678],[12.119353833137646,24.115472729525113],[12.122846329727004,24.045622797737938],[12.143801309263159,24.014190328433706],[12.13332381949508,23.96878787277204],[12.0809363706547,23.930370410289097],[12.007593942278165,23.912907927342303],[11.913296534365477,23.923385417110374],[11.832969112810224,23.888460451216787],[11.728194215129461,23.836073002376406],[11.626911814038056,23.83258050578705],[11.52912190953601,23.88147545803807],[11.43831699821268,23.877982961448716],[11.341627906976727,23.910968992248158]]]}},{"type":"Feature","id":"lakes-3","properties":{"id":4,"name":null,"continent":"Westeros","layer":"lakes","fid":"lakes-3"},"geometry":{"type":"Polygon","coordinates":[[[9.525303654485027,23.8657791805095],[9.475533914993036,23.91989292052102],[9.433623955920732,23.989742852308193],[9.430131459331372,24.07356277045281],[9.384729003669708,24.129442715882547],[9.403398892580261,24.197360132890452],[9.426638962742013,24.29009755899305],[9.433623955920732,24.377409973727023],[9.517443874065343,24.46821488505035],[9.55586133654829,24.545049810016245],[9.593570321151692,24.606960132890453],[9.625711268335465,24.538064816837526],[9.61174128197803,24.40534994644189],[9.632696261514182,24.307560041939844],[9.643173751282259,24.21675513061652],[9.625711268335465,24.07356277045281],[9.608248785388671,23.94434039664653],[9.569831322905726,23.909415430752944],[9.525303654485027,23.8657791805095]]]}},{"type":"Feature","id":"lakes-4","properties":{"id":5,"name":null,"continent":"Westeros","layer":"lakes","fid":"lakes-4"},"geometry":{"type":"Polygon","coordinates":[[[9.642332225913597,25.104331561461887],[9.566338826316365,25.173699196100827],[9.503473887707905,25.302921569907102],[9.46505642522496,25.397218977819794],[9.4615639286356,25.51596386185799],[9.482518908171754,25.617246262949397],[9.49299639793983,25.690588691325928],[9.541891350190852,25.735991146987594],[9.587293805852516,25.763931119702466],[9.653651241050333,25.732498650398238],[9.716516179658793,25.676618704968494],[9.713023683069434,25.56835131069837],[9.72000867624815,25.460083916428253],[9.674606220586487,25.39023398464107],[9.688576206943921,25.26450410742416],[9.69206870353328,25.14575922338596],[9.642332225913597,25.104331561461887]]]}},{"type":"Feature","id":"lakes-5","properties":{"id":6,"name":"Long Lake","continent":"Westeros","layer":"lakes","fid":"lakes-5","slug":"long-lake"},"geometry":{"type":"Polygon","coordinates":[[[17.171170321151745,28.77854108527145],[17.169503901350467,28.910670546714744],[17.159026411582392,28.970042988733848],[17.179981391118545,29.064340396646536],[17.16251890817175,29.162130301148583],[17.092668976384576,29.294845171544214],[17.054251513901626,29.371680096510108],[17.054251513901626,29.45200751806536],[17.117116452510086,29.54281242938869],[17.179981391118545,29.65806481683753],[17.19744387406534,29.766332211107652],[17.19744387406534,29.913017067860725],[17.221891350190848,30.024776958720206],[17.228876343369567,30.164476822294557],[17.25332381949508,30.290206699511472],[17.354606220586483,30.401966590370954],[17.51526106369699,30.4403840528539],[17.56764851253737,30.464831528979413],[17.651468430681984,30.468324025568773],[17.70734837611172,30.433399059675185],[17.703855879522365,30.38799660401352],[17.651468430681984,30.342594148351857],[17.682900899986212,30.290206699511472],[17.72481085905852,30.171461815473272],[17.696870886343646,30.000329482594694],[17.66194592045006,29.85364462584162],[17.553678526179937,29.727914748624706],[17.51176856710763,29.577737395282277],[17.476843601214043,29.42756004193985],[17.438426138731096,29.294845171544214],[17.445411131909815,29.169115294327298],[17.410486166016227,29.039892920521023],[17.330158744460974,28.914163043304107],[17.256816316084436,28.830343125159498],[17.171170321151745,28.77854108527145]]]}},{"type":"Feature","id":"lakes-6","properties":{"id":7,"name":null,"continent":"Westeros","layer":"lakes","fid":"lakes-6"},"geometry":{"type":"Polygon","coordinates":[[[13.993514815402303,43.291025253399596],[14.063364747189478,43.27705526704216],[14.119244692619219,43.17926536254011],[14.196079617585113,43.07449046485935],[14.23798957665742,42.87192566267654],[14.20306461076383,42.816045717246794],[14.077334733546914,42.89986563539141],[14.000499808581019,43.01861051942961],[13.986529822223584,43.17926536254011],[13.993514815402303,43.291025253399596]]]}},{"type":"Feature","id":"lakes-7","properties":{"id":8,"name":null,"continent":"Westeros","layer":"lakes","fid":"lakes-7"},"geometry":{"type":"Polygon","coordinates":[[[13.057525729454143,42.04769646758786],[12.896870886343638,42.20835131069836],[12.750186029590568,42.30614121520041],[12.743201036411852,42.44584107877476],[12.673351104624675,42.50870601738322],[12.589531186480064,42.557600969634244],[12.54063623422904,42.59951092870655],[12.568576206943913,42.676345853672444],[12.54063623422904,42.71825581274475],[12.498726275156738,42.76016577181706],[12.42887634336956,42.82303071042551],[12.463801309263147,42.83001570360423],[12.547621227407758,42.774135758174495],[12.624456152373654,42.68333084685116],[12.764156015948004,42.61348091506399],[12.875915906807487,42.5017210242045],[12.973705811309532,42.32709619473656],[13.043555743096709,42.152471365268624],[13.057525729454143,42.04769646758786]]]}},{"type":"Feature","id":"lakes-8","properties":{"id":9,"name":null,"continent":"Westeros","layer":"lakes","fid":"lakes-8"},"geometry":{"type":"Polygon","coordinates":[[[13.001645784024404,43.15831038300396],[12.959735824952098,43.12338541711037],[12.906563417594889,43.16123406907388],[12.827020954556463,43.193235348897545],[12.743201036411852,43.151325389825246],[12.638426138731088,43.06750547168063],[12.55471429458517,43.14068578905912],[12.442846329726995,43.339920205650614],[12.359026411582384,43.36786017836549],[12.324101445688797,43.41675513061651],[12.421891350190842,43.47263507604625],[12.449831322905714,43.54947000101214],[12.491741281978019,43.61931993279932],[12.449831322905714,43.675199878229066],[12.442846329726995,43.717109837301365],[12.505711268335453,43.724094830480084],[12.554606220586477,43.70313985094393],[12.596516179658781,43.717109837301365],[12.619447775749986,43.799887410169106],[12.684505478910882,43.899653931226204],[12.765090287226183,43.912066798786675],[12.960358672470882,43.86097908198321],[13.03500083288434,43.88182598752067],[13.08681947120528,43.96773059621903],[13.161868331140134,43.984001421127594],[13.278229899101882,43.96293836759275],[13.34734890937158,43.77986670191113],[13.336925456602849,43.68218487140778],[13.232150558922083,43.66122989187163],[13.232150558922083,43.59836495326317],[13.288030504351825,43.53550001465471],[13.260090531636955,43.46565008286753],[13.197225593028495,43.42374012379523],[13.21452596497725,43.32668114081066],[13.214634038975944,43.25964682109471],[13.113405674883884,43.22816031479113],[13.001645784024404,43.15831038300396]]]}},{"type":"Feature","id":"lakes-9","properties":{"id":10,"name":null,"continent":"Westeros","layer":"lakes","fid":"lakes-9"},"geometry":{"type":"Polygon","coordinates":[[[14.451031868608304,43.48660506240368],[14.34276447433818,43.720602333890724],[14.251959563014852,43.89173466676931],[14.189094624406396,43.97206208832456],[14.210049603942549,44.073344489415966],[14.119244692619219,44.13620942802442],[14.119244692619219,44.247969318883904],[14.108767202851142,44.37020669951146],[14.140199672155372,44.49244408013902],[14.091304719904349,44.59023398464107],[14.042409767653323,44.67056140619632],[13.993514815402303,44.722948855036705],[13.986529822223584,44.855663725432336],[13.923664883615126,44.95345362993438],[13.920172387025767,45.05124353443642],[13.979544829044867,45.100138486687456],[14.094797216493708,45.0791835071513],[14.161154651691525,44.995363589006686],[14.14718466533409,44.93249865039823],[14.224019590299983,44.81026126977067],[14.370704447053054,44.69500888232183],[14.43356938566151,44.68103889596439],[14.48944933109125,44.52038405285389],[14.604701718540092,44.46450410742415],[14.643119181023039,44.359729209743385],[14.705984119631498,44.240984325705185],[14.726939099167652,44.17113439391801],[14.740909085525086,44.02444953716494],[14.796789030954827,43.982539578092634],[14.75487907188252,43.94062961902033],[14.78281904459739,43.856809700875715],[14.849176479795208,43.671707381639706],[14.922518908171744,43.58788746349509],[14.90156392863559,43.53550001465471],[14.803774024133544,43.59836495326317],[14.733924092346367,43.724094830480084],[14.657089167380473,43.8079147486247],[14.587239235593298,43.87776468041187],[14.552314269699709,43.9266596326629],[14.49643432426997,43.91268964630546],[14.48944933109125,43.88474967359059],[14.559299262878428,43.74504981001624],[14.580254242414581,43.61931993279932],[14.615179208308168,43.52153002829728],[14.580254242414581,43.4516800965101],[14.545329276520993,43.437710110152665],[14.451031868608304,43.48660506240368]]]}},{"type":"Feature","id":"lakes-10","properties":{"id":11,"name":null,"continent":"Westeros","layer":"lakes","fid":"lakes-10"},"geometry":{"type":"Polygon","coordinates":[[[21.84986314074414,14.724574586602593],[21.791491805239268,14.622424749469026],[21.687257277551968,14.59323908171659],[21.608039036509624,14.522359602889225],[21.608039036509624,14.426463837416911],[21.524651414359788,14.351414977482058],[21.42041688667249,14.2805354986547],[21.353706788952604,14.270112045885988],[21.399569981135034,14.347245596374563],[21.43292502999497,14.422294456309416],[21.44960255442493,14.501512697351764],[21.491296365499853,14.597408462824077],[21.524651414359788,14.680796084973913],[21.61220841761712,14.705812371618869],[21.73312046973438,14.709981752726357],[21.84986314074414,14.724574586602593]]]}},{"type":"Feature","id":"lakes-11","properties":{"id":12,"name":null,"continent":"Essos","layer":"lakes","fid":"lakes-11"},"geometry":{"type":"Polygon","coordinates":[[[34.52478170751939,0.807180449794771],[34.48308789644448,0.8989068341595967],[34.52061232641191,1.0344117201530807],[34.54979799416435,1.226203251097715],[34.612338710776726,1.3721315898599258],[34.72074261957152,1.5138905475146487],[34.78328333618389,1.5972781696644844],[34.78745271729139,1.7932390817165995],[34.76243643064644,1.8474410361139917],[34.779113955076404,1.9141511338338617],[34.824977147258814,1.9349980393713295],[34.879179101656206,1.8766267038664424],[34.88751786387119,1.8015778439315895],[34.87500972054872,1.6598188862768595],[34.91253415051614,1.6097863129869623],[34.91670353162363,1.4680273553322394],[34.858332196118745,1.292913348817585],[34.80829962282885,1.1886788211302886],[34.75409766843145,1.1303074856253943],[34.712403857356534,1.1261381045179064],[34.67487942738911,1.0635973879055314],[34.68321818960409,1.009395433508132],[34.64986314074416,0.8947374530521017],[34.59446505242248,0.8232086443801307],[34.52478170751939,0.807180449794771]]]}},{"type":"Feature","id":"lakes-12","properties":{"id":13,"name":null,"continent":"Essos","layer":"lakes","fid":"lakes-12"},"geometry":{"type":"Polygon","coordinates":[[[35.73807160979954,-3.9459140127459236],[35.82979799416436,-3.979269061605855],[35.95904880849661,-4.016793491573289],[36.06328333618391,-4.100181113723124],[36.05911395507641,-4.1627218303355065],[36.013250762894,-4.2252625469478815],[35.97155695181908,-4.25027883359283],[36.021589525108986,-4.304480787990222],[36.07996086061387,-4.400376553462536],[36.05911395507641,-4.587998703299675],[36.00908138178651,-4.704741374309442],[35.92986314074417,-4.771451472029312],[35.8631530430243,-4.825653426426705],[35.84647551859433,-4.9007022863615575],[35.81312046973439,-4.992428670726376],[35.77559603976697,-5.046630625123775],[35.721394085369575,-5.063308149553741],[35.71305532315459,-5.150865152811079],[35.66719213097218,-5.234252774960908],[35.56295760328488,-5.321809778218238],[35.421198645630156,-5.309301634895768],[35.33364164237283,-5.250930299390873],[35.3002865935129,-5.1758814394560275],[35.35865792901778,-5.121679485058628],[35.39201297787772,-5.067477530661236],[35.40452112120019,-5.02161433847882],[35.39618235898521,-4.979920527403905],[35.341980404587815,-4.9757511462964175],[35.3503191668028,-4.879855380824104],[35.42953740784514,-4.800637139781756],[35.46289245670508,-4.704741374309442],[35.43787617006013,-4.579659941084685],[35.39618235898521,-4.467086651182406],[35.37950483455524,-4.396207172355048],[35.4003517400927,-4.3586827423876215],[35.454553694490095,-4.321158312420195],[35.44621493227511,-4.254448214700325],[35.40452112120019,-4.212754403625404],[35.38367421566273,-4.171060592550482],[35.42953740784514,-4.0918423515081415],[35.53377193553244,-4.083503589293159],[35.621328938789766,-4.016793491573289],[35.68386965540215,-3.995946586035828],[35.73807160979954,-3.9459140127459236]]]}},{"type":"Feature","id":"lakes-13","properties":{"id":14,"name":null,"continent":"Essos","layer":"lakes","fid":"lakes-13"},"geometry":{"type":"Polygon","coordinates":[[[34.8604168866725,-5.7199856739837145],[34.90211069774742,-5.7825263905960895],[34.95214327103732,-5.872168084407171],[34.95631265214482,-6.018096423169375],[34.8875178638712,-6.113992188641689],[34.847908743350025,-6.20363388245277],[34.79162209839888,-6.266174599065138],[34.716573238464036,-6.359985673983715],[34.64152437852918,-6.418357009488595],[34.57064489970182,-6.420441700042346],[34.528951088626904,-6.343308149553742],[34.55396737527185,-6.226565478543975],[34.56230613748683,-5.8513211788697035],[34.59566118634677,-5.75542541339739],[34.66237128406664,-5.709562221214981],[34.716573238464036,-5.726239745644946],[34.735335453447746,-5.765848866166117],[34.76654843494971,-5.765657610152012],[34.808299622828855,-5.709562221214981],[34.8604168866725,-5.7199856739837145]]]}},{"type":"Feature","id":"lakes-14","properties":{"id":15,"name":"The Sea of Sighs","continent":"Essos","layer":"lakes","fid":"lakes-14","slug":"the-sea-of-sighs"},"geometry":{"type":"Polygon","coordinates":[[[52.92842991598848,-16.383177856394155],[52.88673610491356,-16.291451472029337],[52.95344620263343,-16.170539419912075],[53.02849506256829,-16.05796613000979],[53.14940711468556,-15.970409126752472],[53.26198040458783,-15.882852123495141],[53.34953740784516,-15.78695635802282],[53.43709441110249,-15.636858638153114],[53.49963512771487,-15.478422156068433],[53.57051460654223,-15.34083257952119],[53.59553089318718,-15.169887954114031],[53.59553089318718,-15.07399218864171],[53.61637779872464,-14.986435185384394],[53.658071609799556,-14.919725087664517],[53.624716560939625,-14.882200657697098],[53.56217584432725,-14.853014989944654],[53.51631265214483,-14.857184371052142],[53.47461884106991,-14.844676227729664],[53.48712698439239,-14.748780462257358],[53.57468398764971,-14.677900983429993],[53.56634522543472,-14.582005217957672],[53.60386965540216,-14.481940071377863],[53.54549831989727,-14.411060592550513],[53.457941316639946,-14.377705543690567],[53.457941316639946,-14.436076879195468],[53.39956998113506,-14.523633882452785],[53.35787617006014,-14.59451336128015],[53.30367421566274,-14.611190885710116],[53.25364164237284,-14.54865016909774],[53.22862535572789,-14.440246260302956],[53.261980404587824,-14.352689257045625],[53.33285988341519,-14.21093029939091],[53.42458626778001,-14.090018247273633],[53.583022749864696,-14.010800006231293],[53.64139408536958,-13.952428670726405],[53.66224099090704,-13.869041048576563],[53.7331204697344,-13.727282090921847],[53.82484685409923,-13.693927042061915],[53.87071004628164,-13.648063849879499],[53.949928287323985,-13.502135511117288],[54.075009720548735,-13.331190885710122],[54.12087291273115,-13.206109452485364],[54.17924424823603,-13.15607687919546],[54.266801251493355,-13.056011732615652],[54.32100320589075,-12.993471016003276],[54.40439082804059,-12.839203915026083],[54.51696411794287,-12.701614338478848],[54.59201297787772,-12.522330950856706],[54.679569981135046,-12.284676227729662],[54.7587882221774,-12.188780462257355],[54.85468398764971,-12.122070364537485],[54.9630878964445,-12.022005217957677],[55.05898366191681,-11.876076879195466],[55.14237128406665,-11.817705543690572],[55.288299622828866,-11.730148540433248],[55.49259929709597,-11.613405869423481],[55.817811023480324,-11.57171205834856],[56.06380450882235,-11.588389582778525],[56.13051460654222,-11.646760918283412],[56.205563466477074,-11.675946586035856],[56.27644294530444,-11.634252774960935],[56.51409766843147,-11.634252774960935],[56.61416281501127,-11.688454729358327],[56.593315909473816,-11.750995445970702],[56.48908138178652,-11.759334208185692],[56.31396737527186,-11.734317921540743],[56.18054717983212,-11.742656683755726],[55.913706788952645,-11.876076879195466],[55.80947226126535,-11.888585022517937],[55.726084639115506,-11.880246260302961],[55.58432568146079,-11.98448078799025],[55.459244248236025,-12.088715315677547],[55.39670353162365,-12.21379674890229],[55.430058580483596,-12.247151797762221],[55.54680125149336,-12.172102937827368],[55.77194783129792,-12.197119224472317],[55.90536802673766,-12.247151797762221],[55.9887556488875,-12.330539419912057],[55.94706183781258,-12.397249517631927],[55.88035174009271,-12.397249517631927],[55.6802214469331,-12.363894468771996],[55.57181753813831,-12.380571993201961],[55.588495062568285,-12.4139270420619],[55.73859278243799,-12.497314664211736],[55.82198040458783,-12.630734859651476],[55.91370678895265,-12.847542677241044],[55.88035174009271,-13.022656683755706],[55.788625355727895,-13.147738116980463],[55.74693154465297,-13.147738116980463],[55.730254020223,-13.072689257045617],[55.75527030686796,-12.939269061605877],[55.788625355727895,-12.772493817306199],[55.64686639807317,-12.630734859651476],[55.50510744041844,-12.530669713071667],[55.33833219611877,-12.505653426426719],[55.10484685409922,-12.630734859651476],[54.94641037201453,-12.864220201671017],[54.712925029995,-13.27281955020522],[54.362697016965676,-13.781484045319225],[54.13755043716112,-14.381874924798055],[54.01246900393636,-14.79047427333225],[53.94575890621649,-15.15737981079154],[53.88738757071161,-15.507607823820848],[53.76230613748685,-15.83281955020523],[53.66224099090705,-15.94956222121499],[53.42667095833375,-16.045457986687296],[53.291433532049396,-16.127934829342152],[53.19318561631422,-16.23933420818568],[53.132094827052,-16.31208541141055],[53.045172586998255,-16.353992188641712],[52.92842991598848,-16.383177856394155]]]}},{"type":"Feature","id":"lakes-15","properties":{"id":16,"name":null,"continent":"Essos","layer":"lakes","fid":"lakes-15"},"geometry":{"type":"Polygon","coordinates":[[[83.25025402022297,-6.964545934569955],[82.88334848276367,-6.997900983429901],[82.08282731012524,-6.847803263560195],[81.56582405279624,-6.522591537175835],[81.10719213097215,-5.947216944341953],[80.97377193553241,-5.496923784732836],[80.8153354534477,-4.988259289618831],[80.90706183781252,-4.604676227729577],[81.11553089318713,-4.21275440362534],[81.41572633292654,-3.920897726100911],[81.53246900393631,-3.654057335221431],[81.63253415051611,-3.4289107554168723],[81.67422796159103,-3.2204417000422723],[81.59917910165619,-3.053666455742608],[81.2322735641969,-2.753471016003189],[80.94041688667247,-2.4616143384787605],[80.37338105605357,-2.044676227729582],[80.19826704953891,-1.7945133612800603],[80.2066058117539,-1.5360117326155702],[80.1065406651741,-1.2858488661660559],[80.26497714725879,-0.8188781821269657],[80.30667095833371,-0.5853928401074242],[80.19826704953891,-0.41027883359276984],[80.07318561631416,-0.3018749247979784],[79.7479738899298,-0.06838958277843687],[79.35605206582557,0.6820990165701062],[79.40608463911546,0.9739556940945349],[79.52282731012524,1.4576039025635836],[79.54784359677018,1.641056671293235],[79.51448854791025,1.8662032510977937],[79.60621493227507,2.0163009709674924],[79.5395048345552,2.3498514595668496],[79.4394396879754,2.7751283325310183],[79.22263187038583,2.9585811012606626],[79.13090548602099,3.1670501566352485],[78.93077519286139,3.400535498654797],[78.80569375963664,3.6340208406743386],[78.79735499742165,3.7757797983290686],[78.73064489970177,4.000926378133627],[78.90575890621643,3.9175387559837844],[78.94745271729136,3.759102273899096],[79.04751786387116,3.533955694094537],[79.15592177266595,3.458906834159677],[79.3393745413956,3.3088091142899785],[79.40608463911546,3.066985010055447],[79.57285988341513,2.9669198634756384],[79.70628007885487,2.8251609058209226],[79.78132893878973,2.658385661521244],[79.77299017657474,2.4249003195017025],[79.88973284758453,2.3081576484919353],[80.16491200067898,2.1663986908372124],[80.6152051602881,1.982945922107561],[80.70693154465292,1.6744117201531736],[80.89038431338257,1.641056671293235],[81.10719213097214,1.3575387559837893],[81.36569375963664,1.2241185605440492],[81.44074261957148,1.3408612315538235],[81.59917910165618,1.4826201892085464],[81.7993093948158,1.582685335788348],[81.83266444367572,1.8411869644528451],[82.06614978569527,1.8578644888828109],[82.24960255442491,1.7577993423030023],[82.51644294530439,1.5326527624984436],[82.61650809188419,1.1907635116841178],[82.63318561631415,0.8738905475147405],[82.61650809188419,0.6153889188502291],[83.1335113492132,-0.043373296133481176],[83.32530288015782,-0.09340586942338547],[83.56712698439235,-0.26851987593803983],[84.01742014400146,-0.2518423515080741],[84.30093805931091,-0.4019400713777799],[84.54276216354543,-0.4686501690976499],[84.66784359677018,-0.6020703645373828],[84.7095374078451,-0.7021355111171985],[84.42601949253566,-1.0356859997165415],[84.52608463911547,-1.2941876283810458],[84.50940711468549,-1.3942527749608402],[84.8679738899298,-1.611060592550423],[84.90966770100471,-1.7444807879901632],[85.20986314074413,-1.952949843364749],[85.1181367563793,-2.019659941084619],[85.21820190295912,-2.3115166186090477],[85.20152437852914,-2.695099680498295],[85.44334848276367,-3.295490559977118],[85.4266709583337,-3.3872169443419367],[85.6351400137083,-3.854187628381027],[85.55175239155845,-4.304480787990144],[85.69351134921318,-4.738096423169303],[85.76856020914803,-4.929887954113923],[85.72686639807313,-5.1633732961334715],[85.78523773357801,-5.338487302648126],[85.85194783129788,-5.355164827078092],[85.60178496484838,-5.546956358022719],[85.4933810560536,-5.538617595807736],[85.00973284758453,-5.0966631984136015],[84.75123121892003,-4.446239745644874],[84.40100320589072,-4.054317921540637],[84.2008729127311,-3.8792039150259754],[84.09246900393632,-3.9292364883158726],[83.89233871077671,-4.246109452485264],[83.60882079546725,-4.337835836850083],[83.25859278243794,-4.554643654439651],[83.08347877592328,-4.871516618609043],[82.89168724497866,-5.31347101600317],[82.83331590947377,-5.72207036453738],[82.90002600719365,-6.113992188641603],[82.9750748671285,-6.289106195156265],[83.25025402022297,-6.380832579521083],[83.4337067889526,-6.447542677240953],[83.51709441110245,-6.572624110465711],[83.49207812445749,-6.739399354765396],[83.40869050230765,-6.881158312420112],[83.25025402022297,-6.964545934569955]]]}},{"type":"Feature","id":"lakes-16","properties":{"id":17,"name":"Dagger Lake","continent":"Essos","layer":"lakes","fid":"lakes-16","slug":"dagger-lake"},"geometry":{"type":"Polygon","coordinates":[[[40.88100320589064,0.15050292536491838],[40.812208417617,0.17551921200986698],[40.70588919937596,0.3985811012606888],[40.66419538830104,0.5445094400228996],[40.66419538830104,0.6654214921401689],[40.6308403394411,0.7696560198274582],[40.5808077661512,0.8363661175473283],[40.534944573968794,0.9197537396971711],[40.57246900393622,0.9781250752020583],[40.62458626777987,1.0406657918144333],[40.69963512771472,1.1219687234105251],[40.73924424823589,1.190763511684132],[40.80386965540202,1.2949980393714355],[40.86432568146065,1.2824898960489648],[40.87683382478313,1.2178644888828387],[40.88577929505151,1.1553231933505685],[40.926866398073024,1.1032065084268083],[40.91018887364306,1.0740208406743648],[40.90601949253556,0.9280925019121469],[40.96439082804045,0.8905680719447275],[40.96439082804045,0.7988416875799089],[40.91435825475055,0.7529784953974996],[40.926866398073024,0.590372632205316],[40.968560209147945,0.5528482022378896],[40.95605206582547,0.4235973879056374],[40.889341968105605,0.33604038464831376],[40.90855437328828,0.2532883869333986],[40.88100320589064,0.15050292536491838]]]}},{"type":"Feature","id":"lakes-17","properties":{"id":18,"name":null,"continent":"Essos","layer":"lakes","fid":"lakes-17"},"geometry":{"type":"Polygon","coordinates":[[[43.78185011142806,7.1144117201532],[43.75266444367562,7.185291198980565],[43.746410372014374,7.2415778439316725],[43.7610032058906,7.314542013312781],[43.77142665865933,7.420861231553829],[43.75266444367562,7.529265140348613],[43.723478775923176,7.579297713638525],[43.72973284758441,7.635584358589661],[43.777680730320576,7.685616931879565],[43.80686639807302,7.731480124061974],[43.79644294530428,7.800274912335588],[43.77976542087432,7.88157784393168],[43.79644294530428,7.971219537742755],[43.83396737527171,8.048353088231352],[43.89859278243784,8.117147876504966],[43.99865792901764,8.190112045886082],[44.069537407845004,8.21304364197728],[44.148755648887345,8.204704879762303],[44.19878822217725,8.185942664778587],[44.209211674945976,8.106724423736239],[44.20504229383849,8.033760254355137],[44.22171981826846,7.97538891885025],[44.19044945996227,7.90867882113038],[44.14458626777985,7.856561557286732],[44.08829962282872,7.844053413964254],[44.07579147950624,7.781512697351872],[44.07996086061373,7.554281426993562],[44.03826704953881,7.506333544257416],[43.9924038573564,7.431284684322563],[43.96113349905021,7.377082729925171],[43.950710046281486,7.3166267038665325],[43.91735499742155,7.239493153377936],[43.89025402022285,7.204053413964253],[43.84422278906981,7.1503940377144914],[43.78185011142806,7.1144117201532]]]}},{"type":"Feature","id":"lakes-18","properties":{"id":19,"name":"Womb of the World","continent":"Essos","layer":"lakes","fid":"lakes-18","slug":"womb-of-the-world"},"geometry":{"type":"Polygon","coordinates":[[[64.79553089318702,-1.5182918629087112],[64.76217584432709,-1.472428670726302],[64.77051460654206,-1.3452625469478008],[64.81637779872447,-1.263959615351709],[64.89976542087432,-1.2368586381530093],[65.00608463911536,-1.2451974003679993],[65.10614978569517,-1.3265003319640911],[65.10406509514141,-1.4765980518337898],[65.05403252185151,-1.5182918629087112],[65.00608463911536,-1.528715315677438],[64.97272959025543,-1.4932755762637626],[64.93312046973425,-1.4765980518337898],[64.89351134921307,-1.5203765534624551],[64.79553089318702,-1.5182918629087112]]]}}]}