{"type":"FeatureCollection","features":[{"type":"Feature","id":"landscape-0","properties":{"id":1,"name":"Rainwood","type":"forest","continent":"Westeros","size":3,"layer":"landscape","fid":"landscape-0","slug":"rainwood"},"geometry":{"type":"Polygon","coordinates":[[[23.23228346456697,-4.624015748031429],[22.9645669291339,-4.537401574803083],[22.996062992126024,-4.277559055118045],[23.224409448818935,-4.183070866141668],[22.98031496062996,-4.033464566929069],[22.767716535433113,-4.151574803149542],[22.460629921259883,-4.096456692913321],[22.255905511811065,-3.8051181102361573],[21.933070866141776,-4.041338582677101],[21.704724409448865,-4.041338582677101],[21.429133858267765,-3.8287401574802518],[21.161417322834694,-3.868110236220409],[20.885826771653594,-4.017716535433007],[20.413385826771705,-3.8208661417322203],[20.468503937007924,-3.6633858267715915],[20.311023622047298,-3.38779527559049],[19.980314960629975,-3.3248031496062387],[19.99606299212604,-3.183070866141672],[19.972440944881942,-2.9625984251967914],[20.098425196850446,-2.710629921259785],[20.208661417322887,-2.6082677165353756],[20.68897637795281,-2.616141732283407],[20.87007874015753,-2.6870078740156904],[21.114173228346505,-2.7814960629920678],[21.30314960629926,-2.7027559055117534],[21.50787401574808,-2.663385826771596],[21.767716535433117,-2.694881889763722],[22.00393700787406,-2.356299212598369],[22.114173228346502,-2.4901574803149034],[22.350393700787446,-2.222440944881834],[22.059055118110283,-2.017716535433016],[22.122047244094535,-1.8523622047243555],[22.334645669291383,-1.860236220472387],[22.47637795275595,-1.7972440944881352],[22.712598425196894,-1.9153543307086072],[22.74409448818902,-2.1594488188975824],[22.948818897637835,-2.2696850393700227],[23.208661417322876,-2.387795275590495],[23.3897637795276,-2.135826771653488],[23.192913385826813,-1.860236220472387],[23.484251968503976,-1.773622047244041],[23.696850393700824,-1.9232283464566386],[23.6653543307087,-2.0255905511810477],[23.822834645669328,-1.9940944881889218],[24.027559055118147,-2.1122047244093936],[24.248031496063028,-2.2460629921259283],[24.46850393700791,-2.293307086614117],[24.7913385826772,-2.2618110236219913],[24.996062992126017,-1.9704724409448273],[25.18503937007877,-1.9468503937007329],[25.263779527559088,-2.088582677165299],[25.098425196850425,-2.3326771653542746],[25.145669291338614,-2.584645669291281],[24.917322834645702,-2.7972440944881307],[24.610236220472473,-2.970472440944823],[24.374015748031532,-3.0177165354330118],[24.129921259842554,-3.1594488188975776],[24.04330708661421,-3.521653543307025],[23.901574803149643,-3.757874015747969],[23.901574803149643,-3.9468503937007235],[23.99606299212602,-4.096456692913321],[23.99606299212602,-4.324803149606234],[23.712598425196887,-4.372047244094423],[23.38188976377957,-4.498031496062926],[23.263779527559095,-4.435039370078674],[23.23228346456697,-4.624015748031429]]]}},{"type":"Feature","id":"landscape-1","properties":{"id":2,"name":"Kingswood","type":"forest","continent":"Westeros","size":3,"layer":"landscape","fid":"landscape-1","slug":"kingswood"},"geometry":{"type":"Polygon","coordinates":[[[22.3897637795276,3.399606299212627],[22.468503937007913,3.2185039370079034],[22.350393700787443,3.0059055118110543],[22.34251968503941,2.801181102362236],[22.468503937007913,2.675196850393733],[22.12204724409453,2.5492125984252296],[22.090551181102406,2.320866141732317],[22.326771653543346,2.4074803149606634],[22.40551181102366,2.289370078740191],[22.366141732283506,2.0531496062992476],[22.208661417322876,1.9586614173228702],[22.21653543307091,1.6594488188976748],[21.783464566929176,1.6279527559055489],[21.625984251968546,0.36811023622051575],[21.177165354330754,0.1870078740157921],[20.633858267716583,0.32086614173232686],[20.082677165354383,0.3838582677165787],[19.63385826771659,0.32874015748035834],[19.098425196850457,0.06102362204728884],[18.838582677165416,0.03740157480319439],[18.618110236220538,0.5413385826772079],[18.95669291338589,1.061023622047284],[18.838582677165416,1.2342519685039761],[18.555118110236286,1.0688976377953154],[17.7834645669292,1.950787401574839],[18.492125984252034,2.588582677165387],[17.807086614173297,2.942913385826803],[18.358267716535494,3.368110236220502],[18.89370078740163,3.415354330708691],[19.358267716535487,3.2185039370079043],[19.47637795275596,2.990157480314992],[20.50000000000005,3.312992125984282],[21.641732283464613,3.5334645669291627],[22.3897637795276,3.399606299212627]]]}},{"type":"Feature","id":"landscape-2","properties":{"id":3,"name":null,"type":"forest","continent":"Westeros","size":2,"layer":"landscape","fid":"landscape-2"},"geometry":{"type":"Polygon","coordinates":[[[7.578740157480439,3.8720472440945137],[7.948818897637918,3.738188976377979],[8.019685039370202,3.2814960629921544],[7.9251968503938235,3.0452755905512108],[7.6338582677166595,2.895669291338613],[7.381889763779653,1.9901574803149953],[7.492125984252093,1.5964566929134225],[7.122047244094615,0.9822834645669687],[6.681102362204854,1.0452755905512205],[6.476377952756035,1.9350393700787754],[6.72047244094501,2.4704724409449144],[6.925196850393828,2.6122047244094806],[6.826006615607005,2.949451522684681],[6.8442130069672,2.985864305405073],[6.821454674417078,3.073646445241258],[6.8981821164138335,3.393344120227742],[6.904755093476963,3.4046414245549954],[6.9055414189660915,3.411521772584872],[7.318897637795401,3.8326771653543568],[7.578740157480439,3.8720472440945137]]]}},{"type":"Feature","id":"landscape-3","properties":{"id":4,"name":null,"type":"forest","continent":"Westeros","size":1,"layer":"landscape","fid":"landscape-3"},"geometry":{"type":"Polygon","coordinates":[[[17.29527559055127,8.057086614173231],[17.393700787401663,8.218503937007876],[17.610236220472526,8.24212598425197],[17.795275590551267,8.092519685039374],[17.77165354330717,7.958661417322839],[17.96850393700796,7.899606299212603],[17.984251968504022,7.789370078740162],[17.937007874015833,7.702755905511816],[17.96456692913394,7.600393700787407],[17.767716535433156,7.375984251968511],[17.622047244094574,7.521653543307092],[17.72440944881898,7.631889763779533],[17.728346456693,7.757874015748037],[17.594488188976463,7.927165354330713],[17.35460622058649,7.892826071953493],[17.29527559055127,8.057086614173231]]]}},{"type":"Feature","id":"landscape-4","properties":{"id":5,"name":null,"type":"forest","continent":"Westeros","size":1,"layer":"landscape","fid":"landscape-4"},"geometry":{"type":"Polygon","coordinates":[[[14.04330708661428,8.923228346456698],[14.137795275590655,8.812992125984257],[13.937007874015853,8.805118110236226],[13.881889763779633,8.982283464566933],[13.992125984252073,9.120078740157485],[14.188976377952859,9.064960629921265],[14.04330708661428,8.923228346456698]]]}},{"type":"Feature","id":"landscape-5","properties":{"id":6,"name":"Whispering Wood","type":"forest","continent":"Westeros","size":1,"layer":"landscape","fid":"landscape-5","slug":"whispering-wood"},"geometry":{"type":"Polygon","coordinates":[[[12.968503937007986,9.714566929133857],[13.086614173228458,9.864173228346456],[13.318897637795386,10.332677165354326],[13.456692913385936,10.49409448818897],[13.614173228346566,10.285433070866137],[13.393700787401684,9.91535433070866],[13.374015748031606,9.746062992125983],[13.118110236220584,9.557086614173228],[12.968503937007986,9.714566929133857]]]}},{"type":"Feature","id":"landscape-6","properties":{"id":7,"name":null,"type":"forest","continent":"Westeros","size":2,"layer":"landscape","fid":"landscape-6"},"geometry":{"type":"Polygon","coordinates":[[[22.503937007874082,15.903543307086576],[22.566929133858334,15.706692913385789],[22.220472440944953,15.344488188976342],[22.023622047244164,15.155511811023587],[21.763779527559127,14.832677165354298],[20.818897637795352,14.14763779527556],[20.71653543307094,14.533464566929101],[20.16535433070874,15.234251968503902],[20.65354330708669,15.494094488188939],[20.952755905511886,16.068897637795235],[21.40944881889771,16.108267716535394],[21.62204724409456,16.438976377952713],[21.976377952755975,16.486220472440902],[22.10236220472448,16.383858267716494],[21.858267716535504,15.76968503937004],[22.503937007874082,15.903543307086576]]]}},{"type":"Feature","id":"landscape-7","properties":{"id":8,"name":null,"type":"forest","continent":"Westeros","size":2,"layer":"landscape","fid":"landscape-7"},"geometry":{"type":"Polygon","coordinates":[[[11.19685039370091,19.564960629921217],[12.535433070866258,19.549212598425154],[12.535433070866258,19.171259842519646],[12.220472440945,18.998031496062953],[12.425196850393817,18.541338582677128],[11.763779527559176,17.73818897637792],[12.188976377952875,17.04527559055115],[11.937007874015869,16.39960629921257],[12.236220472441063,15.454724409448794],[12.330708661417441,14.478346456692893],[11.795275590551302,14.557086614173208],[11.417322834645791,14.982283464566908],[11.399664980240988,15.029680863232432],[11.399664980240988,15.032114613192945],[11.398436128144784,15.032979360964347],[11.118110236220597,15.785433070866116],[10.755905511811148,16.1318897637795],[10.992125984252093,16.588582677165327],[10.66141732283477,17.013779527559024],[10.346456692913513,17.51771653543304],[10.740157480315085,18.100393700787365],[10.283464566929261,18.635826771653505],[10.692913385826897,18.65157480314957],[10.834645669291463,19.360236220472398],[11.19685039370091,19.564960629921217]]]}},{"type":"Feature","id":"landscape-8","properties":{"id":9,"name":"Wolfswood","type":"forest","continent":"Westeros","size":3,"layer":"landscape","fid":"landscape-8","slug":"wolfswood"},"geometry":{"type":"Polygon","coordinates":[[[10.700787401574926,30.053149606299126],[11.096792196627572,29.875630215413455],[11.119329474193373,29.857190624677802],[11.137926668268648,29.857190624677802],[11.14832768509866,29.852528099891934],[11.175396575402898,29.72169513008812],[11.236135935046548,29.726367388522245],[11.275278272301549,29.7956192159734],[11.614173228346576,29.64370078740149],[13.661417322834756,30.053149606299126],[15.386280078854762,29.67701758334532],[17.44094488188986,31.816929133858174],[18.41732283464576,31.659448818897545],[19.078740157480404,32.667322834645574],[19.677165354330796,32.63582677165345],[19.740157480315048,32.28937007874006],[18.984251968504026,31.722440944881797],[19.204724409448907,31.249999999999908],[18.354330708661507,30.273622047244007],[17.70734837611172,30.433399059675185],[17.354606220586483,30.401966590370954],[17.054251513901626,29.371680096510108],[17.251968503937107,28.446850393700707],[16.716535433070966,27.56496062992118],[14.669291338582784,27.438976377952677],[14.480314960630029,26.39960629921253],[13.755905511811134,26.273622047244025],[13.503937007874129,25.61220472440938],[12.590551181102477,25.76968503937001],[11.551181102362325,25.517716535433003],[10.732283464567052,25.738188976377884],[10.07086614173241,26.368110236220403],[10.259842519685163,27.72244094488181],[9.377952755905639,27.37598425196843],[9.15748031496076,28.320866141732203],[10.700787401574926,29.612204724409363],[10.700787401574926,30.053149606299126]]]}},{"type":"Feature","id":"landscape-9","properties":{"id":10,"name":"Hornwood","type":"forest","continent":"Westeros","size":2,"layer":"landscape","fid":"landscape-9","slug":"hornwood"},"geometry":{"type":"Polygon","coordinates":[[[18.984251968504026,26.352362204724344],[20.070866141732367,25.297244094488125],[20.007874015748115,24.872047244094425],[19.764130241721208,24.59871139442024],[19.472440944881978,24.99803149606293],[18.921259842519774,24.95078740157474],[19.125984251968593,24.50984251968498],[18.874015748031585,24.336614173228284],[18.029667701004595,25.040665791814376],[18.30708661417332,26.053149606299147],[18.984251968504026,26.352362204724344]]]}},{"type":"Feature","id":"landscape-10","properties":{"id":11,"name":null,"type":"forest","continent":"Westeros","size":2,"layer":"landscape","fid":"landscape-10"},"geometry":{"type":"Polygon","coordinates":[[[21.724409448818975,31.438976377952667],[22.968503937007945,31.423228346456604],[23.173228346456764,31.108267716535345],[23.62992125984259,31.155511811023533],[23.535433070866212,30.58858267716527],[24.10236220472448,31.328740157480226],[24.330251877925043,31.438464814947164],[24.399056008590744,31.450430750715114],[24.536126416814767,31.51896595482712],[24.937007874015812,30.840551181102278],[24.826771653543375,30.43110236220464],[25.062992125984316,30.021653543307004],[24.8582677165355,29.67519685039362],[24.385826771653612,29.62795275590543],[24.448818897637864,29.10826771653535],[24.01064489970157,28.603401948166148],[23.67716535433078,29.20275590551173],[23.62992125984259,27.612204724409374],[22.98425196850401,27.28149606299205],[22.669291338582752,27.564960629921185],[22.62204724409456,27.816929133858192],[22.27559055118118,27.54921259842512],[21.818897637795352,27.816929133858192],[21.85039370078748,28.65157480314953],[22.007874015748108,29.24999999999992],[22.653543307086686,28.840551181102285],[22.874015748031567,29.029527559055037],[22.480314960629997,29.53346456692905],[22.480314960629997,30.10039370078732],[22.165354330708738,30.27362204724401],[22.259842519685115,30.604330708661333],[22.039370078740234,31.061023622047156],[21.519685039370156,31.09251968503928],[21.724409448818975,31.438976377952667]]]}},{"type":"Feature","id":"landscape-11","properties":{"id":12,"name":"The Haunted Forest","type":"forest","continent":"Westeros","size":3,"layer":"landscape","fid":"landscape-11","slug":"the-haunted-forest"},"geometry":{"type":"Polygon","coordinates":[[[16.73228346456702,35.375984251968404],[16.921259842519767,36.1003937007873],[14.93700787401584,38.494094488188864],[15.062992125984342,39.21850393700776],[13.519685039370174,40.54133858267705],[12.732283464567029,41.54921259842508],[13.141732283464664,42.80905511811011],[14.077334733546914,42.89986563539141],[14.433070866141826,42.462598425196724],[15.125984251968594,43.06102362204712],[15.91338582677174,42.998031496062865],[15.566929133858357,42.05314960629909],[15.472440944881983,40.8562992125983],[15.99212598425206,39.7539370078739],[16.448818897637885,38.99803149606288],[17.031496062992215,38.730314960629805],[17.740157480315048,38.336614173228234],[18.858267716535515,38.03740157480304],[19.488188976378034,36.856299212598316],[19.800168868326438,36.973291672078965],[19.890326619658225,36.94967892768255],[20.030494372682035,36.93098989394604],[20.08656147389156,37.00107377045794],[20.212712451612987,37.02443506262858],[20.34353568776854,36.982384736721436],[20.446325373319336,37.094518939140485],[20.522887279488902,37.16495589281649],[20.87401574803157,36.25787401574792],[20.307086614173304,35.09251968503927],[16.73228346456702,35.375984251968404]]]}},{"type":"Feature","id":"landscape-12","properties":{"id":13,"name":"Forest of Qohor","type":"forest","continent":"Essos","size":4,"layer":"landscape","fid":"landscape-12","slug":"forest-of-qohor"},"geometry":{"type":"Polygon","coordinates":[[[44.984251968503926,9.486220472440948],[45.00600950061047,9.52973553665403],[45.105337324032874,9.532282403921272],[45.25952185235905,9.686466932247477],[45.35763927947572,9.8126179099689],[45.35296702104159,9.934096629256203],[45.34362250417334,10.130331483489535],[45.46510122346064,10.284516011815725],[45.529667452568766,10.374347287096597],[47.49642112811823,10.491765416980147],[47.52556719291063,10.466734090746677],[47.66106268750032,10.410666989537155],[47.91336464294317,10.35927214676176],[48.00680981162571,10.270499236513345],[48.39927952009238,10.041558573241119],[48.70297631831064,10.23312116904033],[49.00200085809476,10.167709550962556],[49.141148679933835,10.165428439129128],[49.36220472440942,9.39173228346457],[50.99806162829966,9.45201532818056],[51.02508876007174,9.42949271837049],[51.04707948223645,9.412051800791582],[51.755905511810994,6.620078740157494],[54.401574803149565,6.872047244094501],[56.669291338582624,4.982283464566949],[56.70693154465276,2.9491999937687225],[52.57480314960626,0.69881889763783],[50.55905511811021,2.8405511811023896],[47.3779527559055,2.4625984251968784],[46.21259842519684,0.22637795275594108],[44.66575890621628,0.9145420133126905],[44.448818897637786,3.8169291338582916],[44.85826771653542,4.446850393700808],[44.196850393700785,4.8248031496063195],[44.36556346647687,7.3520664432801155],[45.01574803149605,8.10039370078741],[42.37007874015748,8.320866141732292],[42.36426053488078,8.686268397677516],[41.630449459962215,8.752978495397379],[42.05511811023622,9.612204724409452],[43.661417322834644,9.517716535433074],[44.291338582677156,9.86417322834646],[44.984251968503926,9.486220472440948]]]}},{"type":"Feature","id":"landscape-13","properties":{"id":14,"name":null,"type":"forest","continent":"Sothoryos","size":5,"layer":"landscape","fid":"landscape-13"},"geometry":{"type":"Polygon","coordinates":[[[91.88188976377933,-41.78937007873998],[58.436641192759694,-41.92677865955764],[53.58215814434541,-41.915873351717345],[54.02183705420191,-41.47619444186084],[54.03139504628038,-41.47271880837776],[54.04399421765655,-41.454037278406204],[54.45115048723859,-41.04688100882416],[54.61542735054624,-40.99614844809679],[54.75559510357005,-40.86532521194124],[54.85371253068672,-40.76720778482456],[54.91445189033037,-40.58498970589362],[55.17609836264147,-40.39342711009442],[55.391022250611314,-40.257931615504745],[55.51250096989862,-40.08505805344204],[55.51987337932661,-39.97815811673614],[55.760462135370155,-39.737569360692596],[55.85824809402401,-39.68324382810712],[55.92365971210179,-39.580454142556334],[55.925448641100424,-39.57258285496233],[57.897637795275514,-37.60039370078724],[57.960629921259766,-37.09645669291322],[58.33858267716528,-36.749999999999844],[58.294037819124654,-36.59854748266173],[58.3018392550724,-36.58086422784683],[58.276334560627845,-36.53835640377257],[57.86614173228339,-35.14370078740142],[58.84251968503929,-33.946850393700636],[58.83490493139622,-33.82875032448111],[58.91857736837716,-33.70742529085874],[58.9419386605478,-33.58594657157144],[58.89988833464066,-33.42241752637699],[58.946610918981925,-33.29626654865557],[59.0821064135716,-33.123392986592876],[59.231618683463665,-33.14208202032938],[59.315719335277954,-33.10003169442223],[59.375871299798845,-33.1041801057685],[59.72440944881881,-33.568897637795125],[59.62992125984243,-33.85236220472426],[59.66269618530059,-34.13641155869496],[59.633432908798575,-34.26809630295398],[59.687195672604595,-34.348740448663015],[59.72440944881881,-34.67125984251953],[59.853630463379005,-34.74084038882118],[59.867045830504935,-34.78204473070795],[60.00254132509461,-34.9128679668635],[60.152053594986675,-35.025002169282544],[60.37164974139064,-35.15115314700397],[60.54919556188747,-35.16984218074049],[60.75131843948508,-35.13170578874095],[61.551181102362115,-35.20669291338567],[61.89721071932734,-34.90089929839315],[62.09571310358349,-34.84745634878573],[62.2358808566073,-34.66523826985478],[62.29194795781683,-34.55310406743574],[62.483510553616036,-34.50638148309447],[62.64236734037635,-34.380230505373035],[62.815240902439044,-34.2026846848762],[62.89720758652361,-34.01718113668481],[62.90551181102353,-34.00984251968489],[63.084190963289565,-32.84842802995562],[63.160988026564446,-32.78699037933572],[63.17033254343271,-32.65149488474603],[63.24976093681286,-32.51599939015635],[63.31050029645651,-32.4365709967762],[63.3946009482708,-32.361814861830155],[63.41796224044143,-32.22164710880635],[63.49739063382159,-32.15623549072858],[63.57214676876762,-32.030084513007154],[63.52542418442635,-31.84319417564207],[63.642230645279525,-31.689009647315885],[63.740348072396195,-31.562858669594448],[63.899204859156505,-31.478758017780166],[64.01601132000968,-31.361951556926996],[64.05323802471781,-31.27420289582925],[64.29577270936177,-31.067599275576995],[64.34306941039857,-31.067599275576995],[64.50014179523627,-31.067599275576995],[65.5511811023621,-31.42716535433057],[67.56692913385815,-32.340551181102214],[70.67308070492743,-32.86859694818399],[70.7901649745929,-32.96924833789642],[71.66141732283452,-34.07283464566914],[72.4663651302878,-34.416520226379525],[72.63632813097392,-34.5484318090016],[72.84190750207551,-34.69327182045953],[73.01010880570408,-34.78204473070795],[73.22036043523978,-34.786716989142064],[73.35188800099883,-34.79460864308761],[73.75564653830205,-34.966999928677744],[73.86980435758343,-35.09041378736032],[74.01464436904138,-35.16984218074049],[74.20362562804043,-35.15827189957728],[74.46456692913372,-35.269685039369925],[76.84543521455593,-35.969276668261756],[76.92546137350247,-36.010848698883336],[77.29924204823261,-36.10429386756587],[77.30186304049437,-36.10339290147589],[79.91484794789379,-36.87118941455061],[80.09325259184055,-36.93128361040635],[80.11145426835745,-36.9289599921276],[81.11023622047229,-37.222440944881725],[82.14960629921244,-37.25393700787385],[82.40870033009347,-37.03951436162748],[82.57889407879608,-37.00136748691827],[82.686356022781,-36.88923328449923],[82.69986154388097,-36.79855335711369],[83.0629921259841,-36.498031496062836],[83.81889763779512,-35.99409448818882],[86.37007874015731,-36.05708661417307],[89.2677165354329,-38.1673228346455],[90.84251968503918,-39.395669291338415],[91.09314510796783,-39.81607322657356],[91.11071414867288,-39.928841241495135],[91.26929476627224,-40.211209031163506],[91.43749606990079,-40.4915445372111],[91.5692410213142,-40.69913492342073],[91.67110899160714,-40.912047796282536],[91.70848705908018,-41.09893813364762],[91.83326489349356,-41.205871635310636],[91.88188976377933,-41.78937007873998]]]}},{"type":"Feature","id":"landscape-14","properties":{"id":15,"name":null,"type":"mountain","continent":"Westeros","size":2,"layer":"landscape","fid":"landscape-14"},"geometry":{"type":"Polygon","coordinates":[[[20.38669562856369,-8.038666847678432],[21.468074938908515,-7.310390985609468],[22.726005973391267,-7.597287537333605],[24.039109421667124,-7.133839261471538],[24.80048873201195,-7.486942709747398],[23.77428183546023,-8.51314960629912],[21.876350800977477,-8.149011675264637],[20.38669562856369,-8.038666847678432]]]}},{"type":"Feature","id":"landscape-15","properties":{"id":16,"name":null,"type":"mountain","continent":"Westeros","size":2,"layer":"landscape","fid":"landscape-15"},"geometry":{"type":"Polygon","coordinates":[[[20.71773011132231,-8.711770295954288],[19.36048873201197,-9.053839261471529],[20.309454249253346,-9.197287537333597],[21.05979907683955,-9.473149606299113],[19.54807493890852,-10.035908226988767],[17.48462666304646,-9.384873744230148],[17.528764594080943,-8.932459951126702],[18.48876459408094,-8.73383926147153],[18.4666956285637,-8.071770295954291],[19.63635080097749,-8.645563399402565],[20.71773011132231,-8.711770295954288]]]}},{"type":"Feature","id":"landscape-16","properties":{"id":17,"name":null,"type":"mountain","continent":"Westeros","size":4,"layer":"landscape","fid":"landscape-16"},"geometry":{"type":"Polygon","coordinates":[[[11.967385283736128,-10.830390985609453],[11.217040456149924,-10.499356502850832],[11.194971490632682,-9.351770295954285],[11.459799076839577,-8.204184089057737],[12.36462666304647,-7.23314960629912],[12.430833559598195,-6.085563399402572],[11.967385283736128,-6.217977192506019],[11.393592180287854,-7.343494433885326],[11.084626663046475,-8.182115123540497],[10.003247352701653,-8.711770295954286],[9.517730111322344,-8.469011675264634],[9.98117838718441,-6.990390985609466],[9.451523214770619,-6.195908226988779],[9.539799076839584,-5.511770295954298],[10.81979907683958,-4.518666847678439],[13.092902525115434,-3.3490116752646513],[13.821178387184396,-3.32694270974741],[13.975661145805086,-4.386253054574992],[14.350833559598188,-3.6579771925060296],[14.814281835460255,-2.6207358131956884],[15.895661145805079,-2.863494433885342],[17.28600597339128,-2.024873744230173],[17.992212869943003,-0.546253054575006],[19.29428183546024,0.07167797990775071],[20.30945424925334,0.24822970404568112],[21.748755648887336,0.2953889188502359],[21.898419766494712,0.8220228074939548],[22.36186804235678,0.7999538419767136],[22.538419766494712,0.42478142818361153],[21.766005973391266,-0.06073581319569721],[21.479109421667133,-0.6124599511267297],[21.3025576975292,-1.2524599511267274],[22.052902525115407,-1.9145289166439665],[22.114173228346502,-2.4901574803149034],[21.037730111322304,-2.686942709747412],[20.397730111322307,-2.1572875373336204],[20.375661145805065,-0.8331496062991428],[19.603247352701622,-1.451080640781899],[19.84600597339127,-2.4662530545749988],[19.44876459408093,-3.702115123540512],[17.219799076839557,-3.900735813195684],[16.491523214770595,-4.320046158023269],[16.292902525115423,-4.783494433885336],[17.70531631821887,-4.452459951126716],[16.91083355959818,-5.886942709747401],[15.608764594080943,-6.173839261471538],[15.476350800977496,-6.769701330437053],[17.37428183546025,-6.902115123540501],[16.800488732011974,-8.424873744230151],[13.821178387184398,-8.469011675264634],[11.967385283736128,-10.830390985609453]]]}},{"type":"Feature","id":"landscape-17","properties":{"id":18,"name":null,"type":"mountain","continent":"Westeros","size":3,"layer":"landscape","fid":"landscape-17"},"geometry":{"type":"Polygon","coordinates":[[[9.473592180287852,1.9254710833560225],[8.392212869943029,2.9406434971491215],[7.884626663046479,4.022022807493945],[9.186695628563715,5.3461607385284236],[8.436350800977511,5.412367635080148],[8.259799076839581,6.250988324735317],[7.575661145805101,6.074436600597387],[7.06807493890855,6.405471083356007],[8.105316318218891,6.913057290252556],[8.011101537649518,7.242809022245364],[8.026294390801324,7.252804320371553],[8.068344716708467,7.29952690471282],[8.035638907669577,7.346249489054088],[7.984297548515968,7.336622984212787],[7.9287645940809615,7.530988324735313],[8.259799076839581,8.14891935921807],[8.988074938908543,9.804091773011166],[8.568764594080958,10.223402117838752],[8.701178387184406,10.51029866956289],[9.495661145805094,10.311677979907717],[11.051882900401818,10.644074859530319],[11.05859011454972,10.644863943547719],[11.208102384441784,10.55609103329931],[11.25949722721718,10.598141359206451],[11.348557151428114,10.707442175283509],[11.768764594080947,10.797195221287026],[12.928429915988236,11.629851459566787],[13.754971490632665,11.106160738528404],[13.499635127714619,10.299818886276881],[12.695661145805083,9.914436600597373],[10.577040456149918,9.119953841976686],[10.246005973391298,8.788919359218067],[12.298419766494739,8.965471083355997],[11.30531631821888,7.751677979907726],[11.349454249253363,7.442712462666347],[11.592212869943017,6.427540048873248],[13.49014390442577,6.780643497149109],[13.423937007874045,5.191677979907735],[13.578419766494735,4.860643497149116],[12.077730111322326,4.44133315232153],[12.519109421667151,4.08822970404567],[12.563247352701634,3.558574531631878],[11.6363508009775,3.6027124626663607],[12.033592180287844,2.631677979907744],[10.223937007874056,2.918574531631881],[9.473592180287852,1.9254710833560225]]]}},{"type":"Feature","id":"landscape-18","properties":{"id":19,"name":null,"type":"mountain","continent":"Westeros","size":4,"layer":"landscape","fid":"landscape-18"},"geometry":{"type":"Polygon","coordinates":[[[25.054281835460213,13.997195221287011],[24.568764594080903,13.599953841976669],[24.921868042356763,13.401333152321497],[24.153476858345243,13.00099488838272],[24.028779527686176,13.027715744952516],[23.893284033096492,12.980993160611249],[23.867483377260434,12.851989881430972],[22.29566114580505,12.033057290252536],[22.66201714009039,11.966447109473384],[22.56209190123832,11.922822310046591],[22.68560568943483,11.96215828231985],[23.509454249253324,11.812367635080124],[22.361868042356775,11.326850393700814],[22.891523214770565,10.7309883247353],[21.986695628563673,9.693746945424959],[19.647385283736092,9.406850393700822],[18.25704045614989,10.06891935921806],[15.961868042356796,11.966850393700813],[15.410143904425764,13.95305729025253],[15.67497149063266,15.166850393700802],[16.668074938908518,15.917195221287006],[17.286005973391276,16.027540048873213],[17.454219383281316,16.104827291255123],[17.54718901494354,16.083372760871534],[17.663995475796717,16.069355985569153],[17.715390318572112,16.139439862081055],[17.672653450588772,16.20518888974774],[18.102557697529203,16.402712462666315],[18.165455079370275,16.419934364837086],[18.252700038496716,16.368380525353274],[18.38352327465227,16.373052783787408],[18.425573600559414,16.42911988499693],[18.45099380687123,16.4981175878433],[19.95635080097747,16.910298669562863],[20.905316318218848,16.97650556611459],[22.008764594080915,16.954436600597347],[21.346695628563673,16.402712462666315],[20.530143904425746,15.674436600597351],[21.523247352701603,14.879953841976665],[21.037730111322297,14.173746945424941],[22.185316318218845,14.548919359218045],[23.1686574448304,15.163507563350269],[23.20551646716816,15.160156743137748],[23.305747535005025,15.197979787604488],[23.332890936205906,15.216592405570808],[24.63497149063263,15.29926418680425],[23.950833559598145,14.526850393700803],[22.450143904425737,13.79857453163184],[20.839109421667125,12.78340211783874],[20.486005973391265,12.27581591094219],[20.97152321477057,12.297884876459431],[22.251523214770565,13.379264186804257],[24.12738528373608,14.239953841976668],[25.054281835460213,13.997195221287011]]]}},{"type":"Feature","id":"landscape-19","properties":{"id":20,"name":null,"type":"mountain","continent":"Westeros","size":3,"layer":"landscape","fid":"landscape-19"},"geometry":{"type":"Polygon","coordinates":[[[5.942557697529238,23.59719522128698],[6.040612326411661,25.092783055658014],[7.443247352701646,25.64960901439042],[8.083247352701644,26.753057290252485],[10.460521368529204,28.693665079658818],[12.919795905833388,29.95385669317522],[13.909454249253349,31.497884876459366],[13.371118312372573,32.72447358389241],[13.427425140652094,32.73530182010001],[13.492836758729872,32.83341924721668],[13.492836758729872,32.84374753435266],[14.970932394895737,33.381339397137026],[15.186372206009667,34.204056960917256],[15.193538828752084,34.21173548528413],[15.191020630494203,34.221808278315656],[15.258562170491455,34.47973466134204],[17.237098405431844,34.995560807633865],[18.168764594080926,32.79995384197661],[16.204626663046444,30.857884876459373],[14.902557697529208,27.525471083355935],[13.181178387184385,25.517195221286975],[13.181178387184385,24.237195221286978],[13.048764594080938,23.22202280749388],[10.488764594080946,21.8978848764594],[10.003247352701637,23.707540048873188],[8.171523214770609,23.442712462666293],[5.942557697529238,23.59719522128698]]]}},{"type":"Feature","id":"landscape-20","properties":{"id":21,"name":"Lonely Hills","type":"mountain","continent":"Westeros","size":2,"layer":"landscape","fid":"landscape-20","slug":"lonely-hills"},"geometry":{"type":"Polygon","coordinates":[[[18.01428183546023,30.10754004887317],[19.250143904425748,30.6592641868042],[20.000488732011952,29.908919359217997],[20.927385283736086,29.644091773011098],[21.01566114580505,28.342022807493862],[19.956350800977468,28.010988324735244],[19.4929025251154,27.26064349714904],[18.257040456149888,27.370988324735244],[17.10945424925334,27.635815910942142],[17.445411131909815,29.169115294327298],[18.01428183546023,30.10754004887317]]]}},{"type":"Feature","id":"landscape-21","properties":{"id":22,"name":null,"type":"mountain","continent":"Westeros","size":4,"layer":"landscape","fid":"landscape-21"},"geometry":{"type":"Polygon","coordinates":[[[16.557730111322307,35.4702986695628],[14.858419766494727,34.36685039370074],[13.666695628563696,34.56547108335591],[13.423937007874041,35.31581591094211],[13.723859271191781,35.45424157093491],[13.777844523211616,35.421850419723015],[13.918012276235425,35.42652267815714],[13.974079377444948,35.44521171189365],[13.983276586564582,35.57397263956851],[13.997730111322316,35.580643497149005],[12.077730111322323,38.184781428183484],[9.870833559598193,38.60409177301106],[11.018419766494741,40.303402117838644],[9.319109421667159,42.5765055661145],[8.546695628563713,46.041333152321386],[8.767385283736127,47.14478142818345],[11.415661145805084,46.90202280749379],[12.71773011132232,45.42340211783863],[11.3715232147706,43.41512625576967],[14.063937007874038,41.362712462666224],[16.204626663046447,36.77236763508004],[16.557730111322307,35.4702986695628]]]}},{"type":"Feature","id":"landscape-22","properties":{"id":23,"name":null,"type":"mountain","continent":"Essos","size":4,"layer":"landscape","fid":"landscape-22"},"geometry":{"type":"Polygon","coordinates":[[[43.150833559598084,13.555815910942192],[43.28816618684957,13.19875108008832],[43.292501051591614,13.162627207237925],[43.30549620166799,13.153693041560414],[43.37152321477049,12.982022807493918],[43.7466956285636,12.783402117838746],[43.59221286994291,12.033057290252541],[43.50995126463823,12.146957974520559],[43.50275268112733,12.17678067763714],[43.4896983040675,12.175000535310799],[43.30531631821877,12.430298669562886],[43.04048873201188,11.32685039370082],[43.28324735270153,11.017884876459442],[43.150833559598084,10.466160738528409],[43.798357983622864,10.288091521921594],[43.91391142333049,10.219104393737936],[44.18236959317732,10.05868426785386],[44.391262420697196,9.827410065956853],[44.3998263004797,9.812617909968885],[44.40737082245444,9.80957576401133],[44.65152321477049,9.539264186804274],[43.702557697529116,9.053746945424965],[42.59910942166705,9.45098832473531],[42.20186804235671,9.892367635080136],[41.49566114580499,9.29650556611462],[41.38531631821878,8.63443660059738],[41.67221286994291,7.729609014390489],[40.78945424925326,7.155815910942215],[40.34807493890844,7.884091773011177],[39.46531631821878,8.855126255769795],[38.22945424925327,10.068919359218066],[38.163247352701546,9.075815910942207],[38.97979907683948,7.222022807493937],[38.53841976649465,6.030298669562908],[37.03773011132224,7.1337469454249725],[35.80186804235673,9.031677979907725],[34.588074938908456,9.671677979907722],[33.506695628563634,10.929609014390477],[32.646005973391226,11.966850393700817],[32.094281835460194,11.988919359218059],[32.5797990768395,10.929609014390477],[32.2046266630464,10.753057290252546],[31.520488732011916,10.64271246266634],[31.277730111322263,10.466160738528409],[30.74807493890847,10.907540048873235],[30.9246266630464,11.547540048873234],[30.90255769752916,12.297884876459438],[31.189454249253295,13.423402117838744],[31.674971490632608,13.313057290252537],[31.91773011132226,13.953057290252534],[32.6901439044257,13.224781428183572],[33.705316318218806,13.15857453163185],[33.66117838718432,13.622022807493916],[32.535661145805015,14.835815910942188],[31.96186804235674,15.38754004887322],[32.447385283736054,15.497884876459427],[34.014427893625715,14.783789509927425],[34.0133958014155,14.765211850143473],[34.052513018442305,14.76643426317556],[34.19083355959811,14.703402117838738],[34.6101439044257,13.445471083355985],[34.78669562856363,11.922712462666336],[34.81499955721811,11.886321697253429],[34.803007476782945,11.82636129507761],[34.86374683642659,11.737588384829202],[34.94784748824088,11.658159991449047],[35.00665312602546,11.639909965929697],[35.2501439044257,11.32685039370082],[35.934281835460176,11.67995384197668],[36.817040456149826,11.900643497149094],[37.611523214770514,12.319953841976679],[37.3908335595981,13.423402117838744],[37.74393700787397,13.246850393700814],[38.00020034345515,13.31091622759611],[38.12965548188133,13.321483993998243],[38.18554270804649,13.357251818743945],[38.53841976649465,13.445471083355985],[38.93457984475647,13.665560015723665],[38.96131748315592,13.667231118123631],[39.0243493768046,13.715431977972624],[39.53152321477051,13.997195221287019],[40.017040456149815,13.997195221287019],[40.6879003746697,13.218132090102635],[40.690053103782915,13.204677533145066],[40.705634706984505,13.189095929943473],[41.098419766494644,11.988919359218059],[42.22393700787394,11.437195221287027],[42.62117838718429,11.966850393700817],[42.523317479525815,12.199270049389703],[42.50756163465829,12.274898104753802],[42.49058033518997,12.277020767187343],[42.444626663046364,12.386160738528403],[42.552198201347075,12.708875353430534],[42.554284218999555,12.71409039756174],[42.55415049991927,12.71473224914712],[42.57704045614981,12.783402117838746],[42.75359218028774,12.959953841976677],[42.77762650852322,12.996005334329903],[42.7878971407059,12.989753645175227],[42.90003134312495,13.013114937345861],[42.979459736505106,13.125249139764911],[43.01683780397813,13.260744634354587],[43.00626728227502,13.338966494957594],[43.150833559598084,13.555815910942192]]]}},{"type":"Feature","id":"landscape-23","properties":{"id":24,"name":null,"type":"mountain","continent":"Essos","size":2,"layer":"landscape","fid":"landscape-23"},"geometry":{"type":"Polygon","coordinates":[[[32.46945424925329,9.417884876459443],[32.85566114580501,9.439953841976685],[33.164626663046384,9.175126255769788],[33.12048873201191,8.67857453163186],[33.42945424925328,8.248229704045654],[33.15359218028777,7.773746945424966],[32.833592180287766,7.66340211783876],[32.568764594080875,7.906160738528413],[32.18255769752915,8.435815910942205],[31.421178387184323,8.777884876459446],[31.597730111322257,9.04271246266634],[32.19359218028777,9.119953841976685],[32.46945424925329,9.417884876459443]]]}},{"type":"Feature","id":"landscape-24","properties":{"id":25,"name":null,"type":"mountain","continent":"Essos","size":4,"layer":"landscape","fid":"landscape-24"},"geometry":{"type":"Polygon","coordinates":[[[33.69428183546019,6.857884876459446],[34.84186804235672,5.975126255769792],[37.31359218028775,3.459264186804284],[38.77014390442567,1.605471083356015],[39.343937007873954,0.1930572902525709],[39.65290252511534,-2.455218571816384],[40.71221286994292,-3.779356502850862],[40.160488732011885,-6.913149606299125],[38.94669562856361,-6.913149606299125],[38.57152321477051,-5.147632364919822],[38.814281835460164,-3.2717702959543082],[37.90945424925327,-2.2786668476784495],[37.291523214770514,0.2813331523215403],[35.768764594080864,3.7240917730111827],[33.914971490632595,5.246850393700831],[33.69428183546019,6.857884876459446]]]}},{"type":"Feature","id":"landscape-25","properties":{"id":26,"name":null,"type":"mountain","continent":"Essos","size":3,"layer":"landscape","fid":"landscape-25"},"geometry":{"type":"Polygon","coordinates":[[[51.85704045614976,-6.184873744230162],[53.6446266630463,-6.295218571816369],[55.719109421666985,-6.935218571816366],[57.61704045614974,-6.339356502850851],[59.69152321477041,-6.560046158023264],[60.508074938908344,-7.420735813195675],[60.22117838718421,-8.656597882161186],[59.117730111322146,-10.002804778712905],[58.14669562856353,-12.364184089057725],[57.08738528373594,-11.591770295954278],[57.99221286994284,-9.958666847678423],[56.93290252511525,-10.289701330437042],[54.88048873201181,-10.598666847678421],[51.30531631821873,-9.340735813195668],[50.37841976649459,-7.729701330437052],[51.85704045614976,-6.184873744230162]]]}},{"type":"Feature","id":"landscape-26","properties":{"id":27,"name":null,"type":"mountain","continent":"Essos","size":2,"layer":"landscape","fid":"landscape-26"},"geometry":{"type":"Polygon","coordinates":[[[47.443247352701505,-7.189011675264643],[48.182557697529084,-7.553149606299124],[48.712212869942874,-8.204184089057742],[48.0832473527015,-8.480046158023258],[47.41014390442564,-8.31452891664395],[46.61566114580495,-8.16004615802326],[47.37704045614978,-7.784873744230158],[47.443247352701505,-7.189011675264643]]]}},{"type":"Feature","id":"landscape-27","properties":{"id":28,"name":null,"type":"mountain","continent":"Essos","size":2,"layer":"landscape","fid":"landscape-27"},"geometry":{"type":"Polygon","coordinates":[[[55.3549714906325,-12.617977192505998],[55.59773011132215,-13.191770295954273],[55.851523214770424,-14.206942709747372],[55.48738528373595,-15.696597882161159],[54.83635080097733,-15.586253054574954],[54.18531631821871,-14.560046158023233],[54.68186804235664,-13.390390985609445],[55.3549714906325,-12.617977192505998]]]}},{"type":"Feature","id":"landscape-28","properties":{"id":29,"name":null,"type":"mountain","continent":"Essos","size":2,"layer":"landscape","fid":"landscape-28"},"geometry":{"type":"Polygon","coordinates":[[[58.499154902367465,-15.7963225836331],[58.863937007873865,-16.071770295954263],[59.00623639793492,-16.349900921982684],[58.97464446958669,-16.39904392163548],[59.040056087664475,-16.436421989108496],[59.03538382923034,-16.555564579178736],[59.033010196844444,-16.587015208291884],[58.58807493890835,-16.833149606299088],[57.89290252511525,-16.3586668476784],[57.588404279384015,-16.39838401016508],[57.58231145621686,-16.39437166320134],[57.56765124189631,-16.40109092809826],[57.3853163182187,-16.424873744230123],[57.431653867132994,-16.52631540536682],[57.41878241102241,-16.553228449961665],[57.46083273692956,-16.651345877078327],[57.46083273692956,-16.763480079497384],[57.51689983813908,-16.819547180706905],[57.58698371465099,-16.880286540350554],[57.595344998464164,-16.88466626044317],[57.79359218028766,-17.318666847678394],[58.04736208674999,-17.504764779084102],[58.105604400839084,-17.58579756390371],[58.245772153862895,-17.697931766322753],[58.36725087315019,-17.77736015970291],[58.44776294194651,-17.890077056017756],[58.41798700915737,-18.21389032509961],[58.36257861471607,-18.26794729528625],[58.38126764845258,-18.45483763265132],[58.38923623915008,-18.526554948928887],[58.37564455225436,-18.674364543919857],[58.315856030374796,-18.800584756776715],[58.25511667073115,-18.95944154353704],[58.29249473820416,-19.207071240545773],[58.25978892916527,-19.32854995983307],[58.2644611875994,-19.478062229725126],[58.25978892916527,-19.669624825524338],[58.234992337119465,-19.71635686437991],[57.59497149063249,-19.602804778712866],[57.63910942166697,-18.598666847678388],[57.35221286994284,-17.25245995112667],[56.65704045614974,-16.74487374423012],[56.281868042356635,-15.939356502850814],[57.03280461300606,-15.576000097697868],[57.11041335437004,-15.65148257217517],[57.26459788269623,-15.69353289808231],[57.41411015258829,-15.581398695663253],[57.53091661344146,-15.515987077585478],[57.6033738912114,-15.507000203126589],[58.10819764540831,-15.616744497517221],[58.18503279421924,-15.70754967338469],[58.2831502213359,-15.763616774594212],[58.37192313158432,-15.7963225836331],[58.499154902367465,-15.7963225836331]]]}},{"type":"Feature","id":"landscape-29","properties":{"id":30,"name":null,"type":"mountain","continent":"Essos","size":2,"layer":"landscape","fid":"landscape-29"},"geometry":{"type":"Polygon","coordinates":[[[52.861178387184246,-16.546253054574954],[53.688764594080794,-17.064873744230127],[53.920488732011826,-16.568322020092197],[54.96876459408079,-17.561425468368054],[54.119109421667,-17.48418408905771],[54.836350800977335,-18.124184089057707],[54.20738528373596,-18.289701330437016],[53.52324735270148,-17.804184089057706],[52.662557697529074,-16.82211512354047],[52.861178387184246,-16.546253054574954]]]}},{"type":"Feature","id":"landscape-30","properties":{"id":31,"name":null,"type":"mountain","continent":"Essos","size":2,"layer":"landscape","fid":"landscape-30"},"geometry":{"type":"Polygon","coordinates":[[[61.258419766494555,-9.693839261471533],[61.6556611458049,-10.433149606299116],[60.82807493890835,-11.139356502850838],[60.79187236612804,-11.392774512313023],[60.745430416120826,-11.43710546459264],[60.75275909576631,-11.607497266350345],[60.39773011132215,-11.790390985609456],[60.205679589764635,-11.994199702364366],[60.18475940402559,-12.007120993556128],[60.17310026581959,-12.02877367879584],[59.71216202951727,-12.517932623443201],[59.586710324457336,-12.577136522519623],[59.54066162604582,-12.69993305161699],[59.316350800977325,-12.937977192506002],[58.86393700787388,-13.015218571816348],[58.819799076839395,-12.320046158023246],[59.50393700787387,-11.150390985609459],[60.54117838718422,-10.057977192506014],[61.258419766494555,-9.693839261471533]]]}},{"type":"Feature","id":"landscape-31","properties":{"id":32,"name":null,"type":"mountain","continent":"Essos","size":4,"layer":"landscape","fid":"landscape-31"},"geometry":{"type":"Polygon","coordinates":[[[62.40600597339108,-14.758666847678413],[63.98384232576018,-15.039651403579757],[64.11412874712634,-15.118845110684674],[64.19759219848001,-15.133018149593786],[65.42945424925315,-15.729701330437031],[66.8418680423566,-15.817977192505996],[66.93014390442556,-13.853839261471522],[67.12876459408074,-12.353149606299116],[67.702557697529,-11.139356502850845],[68.85014390442555,-11.646942709747394],[69.79910942166693,-11.139356502850845],[68.69566114580486,-9.793149606299128],[67.94531631821866,-7.630390985609481],[69.51221286994279,-7.586253054574999],[70.6377301113221,-7.564184089057758],[71.0129025251152,-8.711770295954304],[72.22669562856345,-10.543494433885328],[71.63083355959793,-12.507632364919804],[70.79221286994277,-14.03039098560945],[71.80738528373587,-16.149011675264614],[72.69014390442553,-18.66487374423012],[72.8887645940807,-21.90901167526459],[71.38807493890829,-22.129701330437],[69.90945424925312,-22.06349443388528],[68.36462666304622,-20.827632364919765],[67.3273852837359,-19.238666847678395],[65.58393700787383,-17.892459951126675],[63.73014390442556,-16.899356502850818],[62.781178387184184,-15.707632364919789],[62.40600597339108,-14.758666847678413]]]}},{"type":"Feature","id":"landscape-32","properties":{"id":33,"name":null,"type":"mountain","continent":"Essos","size":3,"layer":"landscape","fid":"landscape-32"},"geometry":{"type":"Polygon","coordinates":[[[79.33290252511514,-9.351770295954305],[78.09704045614963,-8.24832202009224],[78.84738528373583,-6.438666847678456],[82.68738528373582,-6.571080640781903],[88.0280749389082,-8.469011675264653],[91.69152321477026,-11.426253054574985],[91.90596444313326,-14.232636086629846],[91.89826559639016,-25.071072532475657],[90.72048873201165,-25.59452891664389],[90.54393700787372,-21.136597882161148],[86.52738528373581,-16.766942709747376],[82.86393700787374,-11.955908226988775],[79.33290252511514,-9.351770295954305]]]}},{"type":"Feature","id":"landscape-33","properties":{"id":34,"name":null,"type":"mountain","continent":"Essos","size":3,"layer":"landscape","fid":"landscape-33"},"geometry":{"type":"MultiPolygon","coordinates":[[[[91.91253110979056,-4.9880827656866265],[87.32186804235648,-2.995908226988819],[84.71773011132201,-1.715908226988823],[84.05566114580478,-0.038666847678486604],[82.59910942166685,0.4027124626663383],[82.42255769752893,1.8151262557697816],[81.31910942166687,1.9034021178387466],[79.9508335595979,2.786160738528398],[78.47483604570492,4.7920035138188615],[78.51081706343204,4.914338974091059],[78.48278351282727,5.1853299632704335],[78.51795994621996,5.413976780322855],[78.70081124647137,5.596828080574267],[78.83787515382093,5.680589357287879],[78.99673194058124,5.689933874156139],[79.056070207412,5.725536834254601],[81.93704045614962,4.639953841976665],[84.58531631821857,2.035815910942194],[87.98393700787372,-0.0828047787129691],[91.91442436368102,-2.3227599384741175],[91.91253110979056,-4.9880827656866265]]],[[[78.29179464467286,5.040752084452173],[78.22945424925308,5.125471083355973],[78.3691943258958,5.265211159998702],[78.29179464467286,5.040752084452173]]]]}},{"type":"Feature","id":"landscape-34","properties":{"id":35,"name":"Mother of Mountains","type":"mountain","continent":"Essos","size":1,"layer":"landscape","fid":"landscape-34","slug":"mother-of-mountains"},"geometry":{"type":"Polygon","coordinates":[[[64.86669562856349,-1.0317702959543538],[64.80600597339108,-0.8828047787129751],[65.01014390442556,-0.6621151235405622],[65.51773011132211,-0.7007358131957346],[65.74393700787384,-1.0979771925060775],[65.68876459408074,-1.4897013304371103],[65.41290252511521,-1.5614254683681446],[65.2418680423566,-1.3572875373336626],[64.86669562856349,-1.0317702959543538]]]}},{"type":"Feature","id":"landscape-35","properties":{"id":42,"name":null,"type":"swamp","continent":null,"size":3,"layer":"landscape","fid":"landscape-35"},"geometry":{"type":"Polygon","coordinates":[[[13.015661145805009,20.733746945424826],[14.1853163182188,21.064781428183444],[15.686005973391206,18.195815910942077],[14.781178387184312,16.915815910942083],[15.686005973391206,15.459264186804159],[14.097040456149832,14.399953841976577],[12.486005973391219,14.532367635080025],[12.287385283736047,16.40822970404553],[11.890143904425704,17.953057290252424],[12.706695628563633,19.674436600597243],[13.015661145805009,20.733746945424826]]]}},{"type":"Feature","id":"landscape-36","properties":{"id":43,"name":"The Dothraki Sea","type":"stepp","continent":"Essos","size":5,"layer":"landscape","fid":"landscape-36","slug":"the-dothraki-sea"},"geometry":{"type":"Polygon","coordinates":[[[56.93290252511517,4.799953841976604],[59.978419766494454,3.9613331523214352],[63.24462666304617,3.4316779799076453],[66.68738528373581,3.9613331523214352],[72.33704045614957,3.652367635080058],[72.73428183545991,3.034436600597303],[74.0584197664944,3.4316779799076453],[75.73566114580473,3.122712462666268],[76.22117838718404,2.195815910942134],[77.05979907683921,2.1516779799076513],[78.3839370078737,0.7834021178386923],[77.76600597339093,-0.9821151235406109],[78.64876459408057,-1.8648737442302625],[77.98669562856335,-3.189011675264739],[77.14807493890817,-6.013839261471622],[75.20600597339094,-6.013839261471622],[72.73428183545991,-7.16142546836817],[70.83635080097717,-5.395908226988867],[65.23083355959788,-5.131080640781972],[60.86117838718411,-6.8083220200923105],[59.18393700787377,-6.057977192506106],[56.00600597339103,-6.675908226988861],[51.72462666304622,-5.704873744230246],[49.82669562856347,-7.205563399402651],[48.67910942166692,-6.190390985609552],[49.959109421666916,-3.851080640781978],[46.25152321477038,-0.1434944338854418],[47.61979907683934,2.2399538419766163],[50.43618235898501,2.3488091142898853],[52.38669562856346,0.3420228074938656],[56.8446266630462,2.6371952212869587],[56.93290252511517,4.799953841976604]]]}}]}