{"type":"FeatureCollection","features":[{"type":"Feature","id":"locations-0","properties":{"id":1.0,"name":"King's Landing","size":5,"confirmed":1,"type":"City","layer":"locations","fid":"locations-0","slug":"king-s-landing"},"geometry":{"type":"Point","coordinates":[19.07822970057675,3.9536058335734623]}},{"type":"Feature","id":"locations-1","properties":{"id":2.0,"name":"Hayford Castle","size":3,"confirmed":0,"type":"Castle","layer":"locations","fid":"locations-1","slug":"hayford-castle"},"geometry":{"type":"Point","coordinates":[18.802566452963266,4.487995391976725]}},{"type":"Feature","id":"locations-2","properties":{"id":3.0,"name":"Rosby","size":3,"confirmed":1,"type":"Castle","layer":"locations","fid":"locations-2","slug":"rosby"},"geometry":{"type":"Point","coordinates":[19.986983966014368,4.621154757349338]}},{"type":"Feature","id":"locations-3","properties":{"id":6.0,"name":"Sow's Horn","size":3,"confirmed":1,"type":"Castle","layer":"locations","fid":"locations-3","slug":"sow-s-horn"},"geometry":{"type":"Point","coordinates":[18.856297424955685,6.415301996054055]}},{"type":"Feature","id":"locations-4","properties":{"id":7.0,"name":"Tumbleton","size":4,"confirmed":1,"type":"Town","layer":"locations","fid":"locations-4","slug":"tumbleton"},"geometry":{"type":"Point","coordinates":[16.791159197071647,2.3364203830613732]}},{"type":"Feature","id":"locations-5","properties":{"id":8.0,"name":"High Heart","size":2,"confirmed":1,"type":"Ruin","layer":"locations","fid":"locations-5","slug":"high-heart"},"geometry":{"type":"Point","coordinates":[14.237769962821377,8.452406673333286]}},{"type":"Feature","id":"locations-6","properties":{"id":9.0,"name":"Duskendale","size":4,"confirmed":1,"type":"Town","layer":"locations","fid":"locations-6","slug":"duskendale"},"geometry":{"type":"Point","coordinates":[20.919099523622627,5.8382780794393625]}},{"type":"Feature","id":"locations-7","properties":{"id":10.0,"name":"Antlers","size":3,"confirmed":1,"type":"Castle","layer":"locations","fid":"locations-7","slug":"antlers"},"geometry":{"type":"Point","coordinates":[19.60152264519888,7.314711744623416]}},{"type":"Feature","id":"locations-8","properties":{"id":11.0,"name":"Stokeworth","size":3,"confirmed":0,"type":"Castle","layer":"locations","fid":"locations-8","slug":"stokeworth"},"geometry":{"type":"Point","coordinates":[19.592178128330627,5.072027696242564]}},{"type":"Feature","id":"locations-9","properties":{"id":15.0,"name":"Harrenhal","size":3,"confirmed":1,"type":"Castle","layer":"locations","fid":"locations-9","slug":"harrenhal"},"geometry":{"type":"Point","coordinates":[16.900957270273608,8.379986667604314]}},{"type":"Feature","id":"locations-10","properties":{"id":18.0,"name":"Stoney Sept","size":4,"confirmed":1,"type":"Town","layer":"locations","fid":"locations-10","slug":"stoney-sept"},"geometry":{"type":"Point","coordinates":[13.994812524246766,6.137302619223462]}},{"type":"Feature","id":"locations-11","properties":{"id":21.0,"name":"Acorn Hall","size":3,"confirmed":1,"type":"Castle","layer":"locations","fid":"locations-11","slug":"acorn-hall"},"geometry":{"type":"Point","coordinates":[14.050879625456288,8.015550509742418]}},{"type":"Feature","id":"locations-12","properties":{"id":22.0,"name":"Pinkmaiden","size":3,"confirmed":1,"type":"Castle","layer":"locations","fid":"locations-12","slug":"pinkmaiden"},"geometry":{"type":"Point","coordinates":[12.985604702475385,7.604391767539262]}},{"type":"Feature","id":"locations-13","properties":{"id":32.0,"name":"Riverrun","size":3,"confirmed":1,"type":"Castle","layer":"locations","fid":"locations-13","slug":"riverrun"},"geometry":{"type":"Point","coordinates":[13.312662792864254,9.491984174926479]}},{"type":"Feature","id":"locations-14","properties":{"id":33.0,"name":"Raventree Hall","size":3,"confirmed":0,"type":"Castle","layer":"locations","fid":"locations-14","slug":"raventree-hall"},"geometry":{"type":"Point","coordinates":[15.79830427981969,8.837867994148738]}},{"type":"Feature","id":"locations-15","properties":{"id":34.0,"name":"Darry","size":3,"confirmed":0,"type":"Castle","layer":"locations","fid":"locations-15","slug":"darry"},"geometry":{"type":"Point","coordinates":[17.377527630554535,9.370505455639183]}},{"type":"Feature","id":"locations-16","properties":{"id":41.0,"name":"Wickenden","size":3,"confirmed":1,"type":"Castle","layer":"locations","fid":"locations-16","slug":"wickenden"},"geometry":{"type":"Point","coordinates":[21.63862732247815,9.090169949591584]}},{"type":"Feature","id":"locations-17","properties":{"id":42.0,"name":"Maidenpool","size":4,"confirmed":1,"type":"Town","layer":"locations","fid":"locations-17","slug":"maidenpool"},"geometry":{"type":"Point","coordinates":[20.171538174162347,8.230474397712257]}},{"type":"Feature","id":"locations-18","properties":{"id":43.0,"name":"Rook's Rest","size":3,"confirmed":1,"type":"Castle","layer":"locations","fid":"locations-18","slug":"rook-s-rest"},"geometry":{"type":"Point","coordinates":[22.068475098417807,7.267989160282141]}},{"type":"Feature","id":"locations-19","properties":{"id":44.0,"name":"Dyre Den","size":3,"confirmed":1,"type":"Castle","layer":"locations","fid":"locations-19","slug":"dyre-den"},"geometry":{"type":"Point","coordinates":[23.91868943833201,9.183615118274119]}},{"type":"Feature","id":"locations-20","properties":{"id":45.0,"name":"The Whispers","size":2,"confirmed":1,"type":"Ruin","layer":"locations","fid":"locations-20","slug":"the-whispers"},"geometry":{"type":"Point","coordinates":[24.582150135978008,8.482776353155103]}},{"type":"Feature","id":"locations-21","properties":{"id":46.0,"name":"Dragonstone","size":3,"confirmed":1,"type":"Castle","layer":"locations","fid":"locations-21","slug":"dragonstone"},"geometry":{"type":"Point","coordinates":[24.34853721427167,7.053065272312317]}},{"type":"Feature","id":"locations-22","properties":{"id":47.0,"name":"Sharp Point","size":3,"confirmed":1,"type":"Castle","layer":"locations","fid":"locations-22","slug":"sharp-point"},"geometry":{"type":"Point","coordinates":[23.806555235912967,5.74483291075682]}},{"type":"Feature","id":"locations-23","properties":{"id":48.0,"name":"Stonedance","size":3,"confirmed":1,"type":"Castle","layer":"locations","fid":"locations-23","slug":"stonedance"},"geometry":{"type":"Point","coordinates":[24.208369461247866,4.950548976955268]}},{"type":"Feature","id":"locations-24","properties":{"id":49.0,"name":"Haystack Hall","size":3,"confirmed":1,"type":"Castle","layer":"locations","fid":"locations-24","slug":"haystack-hall"},"geometry":{"type":"Point","coordinates":[22.74128031293207,1.5491448369109833]}},{"type":"Feature","id":"locations-25","properties":{"id":50.0,"name":"Bronzegate","size":3,"confirmed":1,"type":"Castle","layer":"locations","fid":"locations-25","slug":"bronzegate"},"geometry":{"type":"Point","coordinates":[22.040441547813053,1.2968428814681374]}},{"type":"Feature","id":"locations-26","properties":{"id":51.0,"name":"Felwood","size":3,"confirmed":1,"type":"Castle","layer":"locations","fid":"locations-26","slug":"felwood"},"geometry":{"type":"Point","coordinates":[21.28353568148452,0.4278028127205644]}},{"type":"Feature","id":"locations-27","properties":{"id":52.0,"name":"Storm's End","size":3,"confirmed":1,"type":"Castle","layer":"locations","fid":"locations-27","slug":"storm-s-end"},"geometry":{"type":"Point","coordinates":[22.71324676232731,-0.6561611439968544]}},{"type":"Feature","id":"locations-28","properties":{"id":53.0,"name":"Griffin's Roost","size":3,"confirmed":1,"type":"Castle","layer":"locations","fid":"locations-28","slug":"griffin-s-roost"},"geometry":{"type":"Point","coordinates":[21.816173142974968,-1.263554740433328]}},{"type":"Feature","id":"locations-29","properties":{"id":54.0,"name":"Rain House","size":3,"confirmed":1,"type":"Castle","layer":"locations","fid":"locations-29","slug":"rain-house"},"geometry":{"type":"Point","coordinates":[25.058720496258942,-1.992427056157105]}},{"type":"Feature","id":"locations-30","properties":{"id":55.0,"name":"Greenstone","size":3,"confirmed":1,"type":"Castle","layer":"locations","fid":"locations-30","slug":"greenstone"},"geometry":{"type":"Point","coordinates":[24.797074023947843,-4.0855988346459]}},{"type":"Feature","id":"locations-31","properties":{"id":56.0,"name":"Weeping Tower","size":3,"confirmed":1,"type":"Castle","layer":"locations","fid":"locations-31","slug":"weeping-tower"},"geometry":{"type":"Point","coordinates":[22.872103549087615,-4.590202745531592]}},{"type":"Feature","id":"locations-32","properties":{"id":57.0,"name":"Mistwood","size":3,"confirmed":1,"type":"Castle","layer":"locations","fid":"locations-32","slug":"mistwood"},"geometry":{"type":"Point","coordinates":[23.00292678524317,-3.8052633285982864]}},{"type":"Feature","id":"locations-33","properties":{"id":58.0,"name":"Stonehelm","size":3,"confirmed":1,"type":"Castle","layer":"locations","fid":"locations-33","slug":"stonehelm"},"geometry":{"type":"Point","coordinates":[20.0407149380068,-3.235247799634827]}},{"type":"Feature","id":"locations-34","properties":{"id":59.0,"name":"Crow's Nest","size":3,"confirmed":1,"type":"Castle","layer":"locations","fid":"locations-34","slug":"crow-s-nest"},"geometry":{"type":"Point","coordinates":[21.077956310382937,-2.2447290115999508]}},{"type":"Feature","id":"locations-35","properties":{"id":60.0,"name":"Grandview","size":4,"confirmed":0,"type":"Town","layer":"locations","fid":"locations-35","slug":"grandview"},"geometry":{"type":"Point","coordinates":[20.28367237658139,-1.1794540886190532]}},{"type":"Feature","id":"locations-36","properties":{"id":61.0,"name":"Summerhall","size":2,"confirmed":1,"type":"Ruin","layer":"locations","fid":"locations-36","slug":"summerhall"},"geometry":{"type":"Point","coordinates":[18.498869654744965,-1.702747033241252]}},{"type":"Feature","id":"locations-37","properties":{"id":62.0,"name":"Blackhaven","size":3,"confirmed":1,"type":"Castle","layer":"locations","fid":"locations-37","slug":"blackhaven"},"geometry":{"type":"Point","coordinates":[17.863442507703727,-2.8521226080364386]}},{"type":"Feature","id":"locations-38","properties":{"id":63.0,"name":"Fawnton","size":4,"confirmed":0,"type":"Town","layer":"locations","fid":"locations-38","slug":"fawnton"},"geometry":{"type":"Point","coordinates":[18.601659340295754,0.9230622067379954]}},{"type":"Feature","id":"locations-39","properties":{"id":64.0,"name":"Grassy Vale","size":3,"confirmed":1,"type":"Castle","layer":"locations","fid":"locations-39","slug":"grassy-vale"},"geometry":{"type":"Point","coordinates":[17.13457019197995,0.17550085727771148]}},{"type":"Feature","id":"locations-40","properties":{"id":65.0,"name":"Wyl","size":3,"confirmed":1,"type":"Castle","layer":"locations","fid":"locations-40","slug":"wyl"},"geometry":{"type":"Point","coordinates":[17.77934185588943,-4.291178205747478]}},{"type":"Feature","id":"locations-41","properties":{"id":66.0,"name":"Ghaston Grey","size":3,"confirmed":1,"type":"Castle","layer":"locations","fid":"locations-41","slug":"ghaston-grey"},"geometry":{"type":"Point","coordinates":[19.32118713915126,-6.1694260962664345]}},{"type":"Feature","id":"locations-42","properties":{"id":67.0,"name":"Yronwood","size":3,"confirmed":1,"type":"Castle","layer":"locations","fid":"locations-42","slug":"yronwood"},"geometry":{"type":"Point","coordinates":[16.872923719668837,-6.926331962594972]}},{"type":"Feature","id":"locations-43","properties":{"id":68.0,"name":"Vulture's Roost","size":3,"confirmed":1,"type":"Castle","layer":"locations","fid":"locations-43","slug":"vulture-s-roost"},"geometry":{"type":"Point","coordinates":[14.854508076126073,-4.805126633501416]}},{"type":"Feature","id":"locations-44","properties":{"id":69.0,"name":"Nightsong","size":3,"confirmed":1,"type":"Castle","layer":"locations","fid":"locations-44","slug":"nightsong"},"geometry":{"type":"Point","coordinates":[13.611687332648355,-4.272489172010964]}},{"type":"Feature","id":"locations-45","properties":{"id":70.0,"name":"Ashford","size":3,"confirmed":1,"type":"Castle","layer":"locations","fid":"locations-45","slug":"ashford"},"geometry":{"type":"Point","coordinates":[14.648928705024495,-1.8522593031333088]}},{"type":"Feature","id":"locations-46","properties":{"id":37.0,"name":"Lort Harroway's Town","size":1,"confirmed":0,"type":"Town","layer":"locations","fid":"locations-46","slug":"lort-harroway-s-town"},"geometry":{"type":"Point","coordinates":[16.8822682365371,9.725597096632825]}},{"type":"Feature","id":"locations-47","properties":{"id":4.0,"name":"Old Stone Bridge Inn","size":1,"confirmed":0,"type":"Landmark","layer":"locations","fid":"locations-47","slug":"old-stone-bridge-inn"},"geometry":{"type":"Point","coordinates":[20.398142708217517,5.041658016420776]}},{"type":"Feature","id":"locations-48","properties":{"id":39.0,"name":"Saltpans","size":1,"confirmed":1,"type":"Town","layer":"locations","fid":"locations-48","slug":"saltpans"},"geometry":{"type":"Point","coordinates":[19.181019386127474,9.09951446645983]}},{"type":"Feature","id":"locations-49","properties":{"id":40.0,"name":"Quiet Isle","size":1,"confirmed":1,"type":"Landmark","layer":"locations","fid":"locations-49","slug":"quiet-isle"},"geometry":{"type":"Point","coordinates":[19.22774197046874,8.931313162831273]}},{"type":"Feature","id":"locations-50","properties":{"id":71.0,"name":"Cider Hall","size":3,"confirmed":1,"type":"Castle","layer":"locations","fid":"locations-50","slug":"cider-hall"},"geometry":{"type":"Point","coordinates":[12.938882118134103,-1.3009328079063494]}},{"type":"Feature","id":"locations-51","properties":{"id":72.0,"name":"Highgarden","size":3,"confirmed":1,"type":"Castle","layer":"locations","fid":"locations-51","slug":"highgarden"},"geometry":{"type":"Point","coordinates":[10.714887103489763,-2.7680219562221495]}},{"type":"Feature","id":"locations-52","properties":{"id":73.0,"name":"Horn Hill","size":3,"confirmed":1,"type":"Castle","layer":"locations","fid":"locations-52","slug":"horn-hill"},"geometry":{"type":"Point","coordinates":[10.798987755304045,-4.440690475639535]}},{"type":"Feature","id":"locations-53","properties":{"id":74.0,"name":"Brightwater Keep","size":3,"confirmed":1,"type":"Castle","layer":"locations","fid":"locations-53","slug":"brightwater-keep"},"geometry":{"type":"Point","coordinates":[7.920876559881961,-4.52479112745381]}},{"type":"Feature","id":"locations-54","properties":{"id":75.0,"name":"Bandallon","size":3,"confirmed":1,"type":"Castle","layer":"locations","fid":"locations-54","slug":"bandallon"},"geometry":{"type":"Point","coordinates":[6.453787411566156,-4.41265692503476]}},{"type":"Feature","id":"locations-55","properties":{"id":76.0,"name":"Honeyholt","size":3,"confirmed":1,"type":"Castle","layer":"locations","fid":"locations-55","slug":"honeyholt"},"geometry":{"type":"Point","coordinates":[8.154489481588298,-5.431209263674404]}},{"type":"Feature","id":"locations-56","properties":{"id":77.0,"name":"Oldtown","size":5,"confirmed":1,"type":"City","layer":"locations","fid":"locations-56","slug":"oldtown"},"geometry":{"type":"Point","coordinates":[7.752675256253397,-6.57124032160133]}},{"type":"Feature","id":"locations-57","properties":{"id":78.0,"name":"Blackcrown","size":3,"confirmed":1,"type":"Castle","layer":"locations","fid":"locations-57","slug":"blackcrown"},"geometry":{"type":"Point","coordinates":[6.350997726015367,-7.2440455361155855]}},{"type":"Feature","id":"locations-58","properties":{"id":79.0,"name":"Three Towers","size":3,"confirmed":1,"type":"Castle","layer":"locations","fid":"locations-58","slug":"three-towers"},"geometry":{"type":"Point","coordinates":[6.995769389924861,-8.066363020521898]}},{"type":"Feature","id":"locations-59","properties":{"id":80.0,"name":"Uplands","size":3,"confirmed":1,"type":"Castle","layer":"locations","fid":"locations-59","slug":"uplands"},"geometry":{"type":"Point","coordinates":[9.920603169688215,-6.823542277044169]}},{"type":"Feature","id":"locations-60","properties":{"id":81.0,"name":"Sunflower Hall","size":3,"confirmed":1,"type":"Castle","layer":"locations","fid":"locations-60","slug":"sunflower-hall"},"geometry":{"type":"Point","coordinates":[9.145008269623172,-9.729687023071023]}},{"type":"Feature","id":"locations-61","properties":{"id":82.0,"name":"Blackmont","size":3,"confirmed":1,"type":"Castle","layer":"locations","fid":"locations-61","slug":"blackmont"},"geometry":{"type":"Point","coordinates":[12.144598184332553,-6.627307422810858]}},{"type":"Feature","id":"locations-62","properties":{"id":83.0,"name":"High Hermitage","size":3,"confirmed":1,"type":"Castle","layer":"locations","fid":"locations-62","slug":"high-hermitage"},"geometry":{"type":"Point","coordinates":[12.200665285542074,-7.3468352216663675]}},{"type":"Feature","id":"locations-63","properties":{"id":84.0,"name":"Starfall","size":3,"confirmed":1,"type":"Castle","layer":"locations","fid":"locations-63","slug":"starfall"},"geometry":{"type":"Point","coordinates":[11.443759419213539,-8.16915270607268]}},{"type":"Feature","id":"locations-64","properties":{"id":85.0,"name":"Sandstone","size":3,"confirmed":1,"type":"Castle","layer":"locations","fid":"locations-64","slug":"sandstone"},"geometry":{"type":"Point","coordinates":[13.66775443385788,-9.430662483286909]}},{"type":"Feature","id":"locations-65","properties":{"id":86.0,"name":"Skyreach","size":3,"confirmed":1,"type":"Castle","layer":"locations","fid":"locations-65","slug":"skyreach"},"geometry":{"type":"Point","coordinates":[14.163013827875318,-7.290768120456853]}},{"type":"Feature","id":"locations-66","properties":{"id":87.0,"name":"Kingsgrave","size":3,"confirmed":1,"type":"Castle","layer":"locations","fid":"locations-66","slug":"kingsgrave"},"geometry":{"type":"Point","coordinates":[14.331215131503882,-6.029258343242631]}},{"type":"Feature","id":"locations-67","properties":{"id":89.0,"name":"Hellholt","size":3,"confirmed":1,"type":"Castle","layer":"locations","fid":"locations-67","slug":"hellholt"},"geometry":{"type":"Point","coordinates":[16.200118505154588,-9.140982460371063]}},{"type":"Feature","id":"locations-68","properties":{"id":90.0,"name":"Vaith","size":3,"confirmed":1,"type":"Castle","layer":"locations","fid":"locations-68","slug":"vaith"},"geometry":{"type":"Point","coordinates":[20.395806579000418,-9.30918376399962]}},{"type":"Feature","id":"locations-69","properties":{"id":91.0,"name":"Salt Shore","size":3,"confirmed":1,"type":"Castle","layer":"locations","fid":"locations-69","slug":"salt-shore"},"geometry":{"type":"Point","coordinates":[21.358291816430533,-10.112812214669418]}},{"type":"Feature","id":"locations-70","properties":{"id":92.0,"name":"Godsgrace","size":3,"confirmed":1,"type":"Castle","layer":"locations","fid":"locations-70","slug":"godsgrace"},"geometry":{"type":"Point","coordinates":[21.470426018849576,-8.542933380802822]}},{"type":"Feature","id":"locations-71","properties":{"id":93.0,"name":"The Tor","size":3,"confirmed":1,"type":"Castle","layer":"locations","fid":"locations-71","slug":"the-tor"},"geometry":{"type":"Point","coordinates":[20.638764017575014,-7.290768120456853]}},{"type":"Feature","id":"locations-72","properties":{"id":94.0,"name":"Ghost Hill","size":3,"confirmed":1,"type":"Castle","layer":"locations","fid":"locations-72","slug":"ghost-hill"},"geometry":{"type":"Point","coordinates":[23.834588786517717,-7.4496249072171565]}},{"type":"Feature","id":"locations-73","properties":{"id":95.0,"name":"Lemonwood","size":3,"confirmed":1,"type":"Castle","layer":"locations","fid":"locations-73","slug":"lemonwood"},"geometry":{"type":"Point","coordinates":[23.984101056409774,-9.58951927004722]}},{"type":"Feature","id":"locations-74","properties":{"id":96.0,"name":"Sunspear","size":3,"confirmed":1,"type":"Castle","layer":"locations","fid":"locations-74","slug":"sunspear"},"geometry":{"type":"Point","coordinates":[24.59149465284625,-8.926058572401217]}},{"type":"Feature","id":"locations-75","properties":{"id":97.0,"name":"Planky Town","size":4,"confirmed":1,"type":"Town","layer":"locations","fid":"locations-75","slug":"planky-town"},"geometry":{"type":"Point","coordinates":[24.049512674487552,-9.103604392898035]}},{"type":"Feature","id":"locations-76","properties":{"id":100.0,"name":"Tall Trees Town","size":4,"confirmed":0,"type":"Town","layer":"locations","fid":"locations-76","slug":"tall-trees-town"},"geometry":{"type":"Point","coordinates":[12.639857578349998,-24.96592177675842]}},{"type":"Feature","id":"locations-77","properties":{"id":101.0,"name":"Longtable","size":3,"confirmed":1,"type":"Castle","layer":"locations","fid":"locations-77","slug":"longtable"},"geometry":{"type":"Point","coordinates":[14.130308018836429,-0.22631336805721247]}},{"type":"Feature","id":"locations-78","properties":{"id":102.0,"name":"Bitterbridge","size":3,"confirmed":1,"type":"Castle","layer":"locations","fid":"locations-78","slug":"bitterbridge"},"geometry":{"type":"Point","coordinates":[14.419988041752289,0.7361718693729031]}},{"type":"Feature","id":"locations-79","properties":{"id":103.0,"name":"Goldengrove","size":3,"confirmed":1,"type":"Castle","layer":"locations","fid":"locations-79","slug":"goldengrove"},"geometry":{"type":"Point","coordinates":[10.775626463133413,0.7361718693729031]}},{"type":"Feature","id":"locations-80","properties":{"id":104.0,"name":"Red Lake","size":3,"confirmed":1,"type":"Castle","layer":"locations","fid":"locations-80","slug":"red-lake"},"geometry":{"type":"Point","coordinates":[8.775899853327159,1.4743887019649335]}},{"type":"Feature","id":"locations-81","properties":{"id":105.0,"name":"Old Oak","size":3,"confirmed":1,"type":"Castle","layer":"locations","fid":"locations-81","slug":"old-oak"},"geometry":{"type":"Point","coordinates":[7.336844255616115,-0.18893530058419117]}},{"type":"Feature","id":"locations-82","properties":{"id":106.0,"name":"Crakehall","size":3,"confirmed":1,"type":"Castle","layer":"locations","fid":"locations-82","slug":"crakehall"},"geometry":{"type":"Point","coordinates":[6.542560321814565,2.296706186371246]}},{"type":"Feature","id":"locations-83","properties":{"id":107.0,"name":"Cornfield","size":3,"confirmed":1,"type":"Castle","layer":"locations","fid":"locations-83","slug":"cornfield"},"geometry":{"type":"Point","coordinates":[8.54228693162082,2.894755265939473]}},{"type":"Feature","id":"locations-84","properties":{"id":108.0,"name":"Silverhill","size":3,"confirmed":1,"type":"Castle","layer":"locations","fid":"locations-84","slug":"silverhill"},"geometry":{"type":"Point","coordinates":[10.710214845055638,3.6329720985314964]}},{"type":"Feature","id":"locations-85","properties":{"id":109.0,"name":"Clegane Hall","size":3,"confirmed":0,"type":"Castle","layer":"locations","fid":"locations-85","slug":"clegane-hall"},"geometry":{"type":"Point","coordinates":[9.159025044925553,4.053475357602913]}},{"type":"Feature","id":"locations-86","properties":{"id":110.0,"name":"Tarbeck Hall","size":2,"confirmed":0,"type":"Ruin","layer":"locations","fid":"locations-86","slug":"tarbeck-hall"},"geometry":{"type":"Point","coordinates":[7.02847519896375,4.016097290129899]}},{"type":"Feature","id":"locations-87","properties":{"id":111.0,"name":"Lannisport","size":5,"confirmed":1,"type":"City","layer":"locations","fid":"locations-87","slug":"lannisport"},"geometry":{"type":"Point","coordinates":[7.3648778062208775,5.221539966134607]}},{"type":"Feature","id":"locations-88","properties":{"id":112.0,"name":"Feastfires","size":3,"confirmed":1,"type":"Castle","layer":"locations","fid":"locations-88","slug":"feastfires"},"geometry":{"type":"Point","coordinates":[5.701553803671749,4.997271561296522]}},{"type":"Feature","id":"locations-89","properties":{"id":113.0,"name":"Kayce","size":4,"confirmed":1,"type":"Town","layer":"locations","fid":"locations-89","slug":"kayce"},"geometry":{"type":"Point","coordinates":[5.972544792851102,5.5392535396552205]}},{"type":"Feature","id":"locations-90","properties":{"id":115.0,"name":"Sarsfield","size":3,"confirmed":1,"type":"Castle","layer":"locations","fid":"locations-90","slug":"sarsfield"},"geometry":{"type":"Point","coordinates":[8.96279019069223,6.455016192744068]}},{"type":"Feature","id":"locations-91","properties":{"id":116.0,"name":"Deep Den","size":3,"confirmed":1,"type":"Castle","layer":"locations","fid":"locations-91","slug":"deep-den"},"geometry":{"type":"Point","coordinates":[11.270885857150851,5.05333866250605]}},{"type":"Feature","id":"locations-92","properties":{"id":117.0,"name":"Hornvale","size":3,"confirmed":1,"type":"Castle","layer":"locations","fid":"locations-92","slug":"hornvale"},"geometry":{"type":"Point","coordinates":[11.055961969181022,5.94106776499013]}},{"type":"Feature","id":"locations-93","properties":{"id":119.0,"name":"Wayfarer's Rest","size":3,"confirmed":0,"type":"Castle","layer":"locations","fid":"locations-93","slug":"wayfarer-s-rest"},"geometry":{"type":"Point","coordinates":[11.981069139138121,7.996861476005911]}},{"type":"Feature","id":"locations-94","properties":{"id":120.0,"name":"Castamere","size":2,"confirmed":0,"type":"Ruin","layer":"locations","fid":"locations-94","slug":"castamere"},"geometry":{"type":"Point","coordinates":[8.420808212333528,7.6978369362217975]}},{"type":"Feature","id":"locations-95","properties":{"id":122.0,"name":"The Crag","size":3,"confirmed":1,"type":"Castle","layer":"locations","fid":"locations-95","slug":"the-crag"},"geometry":{"type":"Point","coordinates":[8.40211917859702,8.809834443543956]}},{"type":"Feature","id":"locations-96","properties":{"id":123.0,"name":"Banefort","size":3,"confirmed":1,"type":"Castle","layer":"locations","fid":"locations-96","slug":"banefort"},"geometry":{"type":"Point","coordinates":[8.40211917859702,10.155444872572467]}},{"type":"Feature","id":"locations-97","properties":{"id":124.0,"name":"Ashemark","size":3,"confirmed":1,"type":"Castle","layer":"locations","fid":"locations-97","slug":"ashemark"},"geometry":{"type":"Point","coordinates":[9.14033601118905,8.015550509742404]}},{"type":"Feature","id":"locations-98","properties":{"id":127.0,"name":"Stone Hedge","size":3,"confirmed":1,"type":"Castle","layer":"locations","fid":"locations-98","slug":"stone-hedge"},"geometry":{"type":"Point","coordinates":[15.204927458685589,9.43591707371695]}},{"type":"Feature","id":"locations-99","properties":{"id":128.0,"name":"Fairmarket","size":4,"confirmed":1,"type":"Town","layer":"locations","fid":"locations-99","slug":"fairmarket"},"geometry":{"type":"Point","coordinates":[14.803113233350686,11.482366267864471]}},{"type":"Feature","id":"locations-100","properties":{"id":129.0,"name":"Oldstones","size":2,"confirmed":1,"type":"Ruin","layer":"locations","fid":"locations-100","slug":"oldstones"},"geometry":{"type":"Point","coordinates":[13.812594445315813,11.977625661881909]}},{"type":"Feature","id":"locations-101","properties":{"id":131.0,"name":"The Bloody Gate","size":3,"confirmed":1,"type":"Castle","layer":"locations","fid":"locations-101","slug":"the-bloody-gate"},"geometry":{"type":"Point","coordinates":[19.867841375944096,11.669256605229542]}},{"type":"Feature","id":"locations-102","properties":{"id":132.0,"name":"The Eyrie","size":3,"confirmed":1,"type":"Castle","layer":"locations","fid":"locations-102","slug":"the-eyrie"},"geometry":{"type":"Point","coordinates":[19.942597510890124,12.211238583588248]}},{"type":"Feature","id":"locations-103","properties":{"id":133.0,"name":"Strongsong","size":3,"confirmed":1,"type":"Castle","layer":"locations","fid":"locations-103","slug":"strongsong"},"geometry":{"type":"Point","coordinates":[18.307307058945756,13.827840001796105]}},{"type":"Feature","id":"locations-104","properties":{"id":134.0,"name":"Heart's Home","size":3,"confirmed":1,"type":"Castle","layer":"locations","fid":"locations-104","slug":"heart-s-home"},"geometry":{"type":"Point","coordinates":[20.839671130242465,13.790461934323098]}},{"type":"Feature","id":"locations-105","properties":{"id":135.0,"name":"Redfort","size":3,"confirmed":1,"type":"Castle","layer":"locations","fid":"locations-105","slug":"redfort"},"geometry":{"type":"Point","coordinates":[21.68067764838528,10.949728806374026]}},{"type":"Feature","id":"locations-106","properties":{"id":136.0,"name":"Ironoaks","size":3,"confirmed":1,"type":"Castle","layer":"locations","fid":"locations-106","slug":"ironoaks"},"geometry":{"type":"Point","coordinates":[22.624473852078886,12.370095370348558]}},{"type":"Feature","id":"locations-107","properties":{"id":137.0,"name":"Old Anchor","size":3,"confirmed":1,"type":"Castle","layer":"locations","fid":"locations-107","slug":"old-anchor"},"geometry":{"type":"Point","coordinates":[23.783193943742326,12.706497977605686]}},{"type":"Feature","id":"locations-108","properties":{"id":138.0,"name":"Runestone","size":3,"confirmed":1,"type":"Castle","layer":"locations","fid":"locations-108","slug":"runestone"},"geometry":{"type":"Point","coordinates":[24.969947586010523,12.407473437821572]}},{"type":"Feature","id":"locations-109","properties":{"id":139.0,"name":"Gulltown","size":5,"confirmed":1,"type":"City","layer":"locations","fid":"locations-109","slug":"gulltown"},"geometry":{"type":"Point","coordinates":[24.66157852935816,11.529088852205739]}},{"type":"Feature","id":"locations-110","properties":{"id":140.0,"name":"Longbow Hall","size":3,"confirmed":1,"type":"Castle","layer":"locations","fid":"locations-110","slug":"longbow-hall"},"geometry":{"type":"Point","coordinates":[23.988773314843904,14.584745868124642]}},{"type":"Feature","id":"locations-111","properties":{"id":130.0,"name":"Palisade Village","size":1,"confirmed":0,"type":"Town","layer":"locations","fid":"locations-111","slug":"palisade-village"},"geometry":{"type":"Point","coordinates":[17.54105667574897,11.145963660607343]}},{"type":"Feature","id":"locations-112","properties":{"id":126.0,"name":"Stone Mill","size":1,"confirmed":0,"type":"Landmark","layer":"locations","fid":"locations-112","slug":"stone-mill"},"geometry":{"type":"Point","coordinates":[13.22388988261584,8.538843454364617]}},{"type":"Feature","id":"locations-113","properties":{"id":98.0,"name":"Water Gardens","size":1,"confirmed":0,"type":"Landmark","layer":"locations","fid":"locations-113","slug":"water-gardens"},"geometry":{"type":"Point","coordinates":[24.7223178890018,-8.72047920129964]}},{"type":"Feature","id":"locations-114","properties":{"id":99.0,"name":"Shandystone","size":1,"confirmed":0,"type":"Ruin","layer":"locations","fid":"locations-114","slug":"shandystone"},"geometry":{"type":"Point","coordinates":[22.619801593644755,-8.524244347066315]}},{"type":"Feature","id":"locations-115","properties":{"id":88.0,"name":"Tower of Joy","size":1,"confirmed":1,"type":"Ruin","layer":"locations","fid":"locations-115","slug":"tower-of-joy"},"geometry":{"type":"Point","coordinates":[14.368593198976896,-5.1321847238902905]}},{"type":"Feature","id":"locations-116","properties":{"id":141.0,"name":"Snakewood","size":3,"confirmed":1,"type":"Castle","layer":"locations","fid":"locations-116","slug":"snakewood"},"geometry":{"type":"Point","coordinates":[22.42823899784557,15.47247497060873]}},{"type":"Feature","id":"locations-117","properties":{"id":143.0,"name":"Coldwater","size":3,"confirmed":1,"type":"Castle","layer":"locations","fid":"locations-117","slug":"coldwater"},"geometry":{"type":"Point","coordinates":[21.90494605322337,16.631195062272162]}},{"type":"Feature","id":"locations-118","properties":{"id":144.0,"name":"Seagard","size":3,"confirmed":1,"type":"Castle","layer":"locations","fid":"locations-118","slug":"seagard"},"geometry":{"type":"Point","coordinates":[13.074377612723788,13.295202540305652]}},{"type":"Feature","id":"locations-119","properties":{"id":145.0,"name":"The Twins","size":3,"confirmed":1,"type":"Castle","layer":"locations","fid":"locations-119","slug":"the-twins"},"geometry":{"type":"Point","coordinates":[13.298646017561873,14.4726116657056]}},{"type":"Feature","id":"locations-120","properties":{"id":146.0,"name":null,"size":3,"confirmed":1,"type":"Castle","layer":"locations","fid":"locations-120"},"geometry":{"type":"Point","coordinates":[13.167822781406324,14.31375487894529]}},{"type":"Feature","id":"locations-121","properties":{"id":147.0,"name":"Greywater Watch","size":3,"confirmed":1,"type":"Castle","layer":"locations","fid":"locations-121","slug":"greywater-watch"},"geometry":{"type":"Point","coordinates":[14.242442221255478,17.014320253870558]}},{"type":"Feature","id":"locations-122","properties":{"id":148.0,"name":"Moat Cailin","size":2,"confirmed":1,"type":"Ruin","layer":"locations","fid":"locations-122","slug":"moat-cailin"},"geometry":{"type":"Point","coordinates":[14.821802267087199,20.154077921603744]}},{"type":"Feature","id":"locations-123","properties":{"id":149.0,"name":"Sisterton","size":4,"confirmed":1,"type":"Town","layer":"locations","fid":"locations-123","slug":"sisterton"},"geometry":{"type":"Point","coordinates":[18.8025664529632,18.285174547953037]}},{"type":"Feature","id":"locations-124","properties":{"id":150.0,"name":"Oldcastle","size":3,"confirmed":1,"type":"Castle","layer":"locations","fid":"locations-124","slug":"oldcastle"},"geometry":{"type":"Point","coordinates":[18.12976123844895,19.228970751646642]}},{"type":"Feature","id":"locations-125","properties":{"id":151.0,"name":"White Harbor","size":5,"confirmed":1,"type":"City","layer":"locations","fid":"locations-125","slug":"white-harbor"},"geometry":{"type":"Point","coordinates":[16.933663079312495,21.3688651144767]}},{"type":"Feature","id":"locations-126","properties":{"id":152.0,"name":"Ramsgate","size":3,"confirmed":1,"type":"Castle","layer":"locations","fid":"locations-126","slug":"ramsgate"},"geometry":{"type":"Point","coordinates":[21.204107288104357,22.471518104930624]}},{"type":"Feature","id":"locations-127","properties":{"id":153.0,"name":"Widow's Watch","size":3,"confirmed":1,"type":"Castle","layer":"locations","fid":"locations-127","slug":"widow-s-watch"},"geometry":{"type":"Point","coordinates":[24.222386236550246,21.90150257596716]}},{"type":"Feature","id":"locations-128","properties":{"id":154.0,"name":"Hornwood","size":3,"confirmed":0,"type":"Castle","layer":"locations","fid":"locations-128","slug":"hornwood"},"geometry":{"type":"Point","coordinates":[18.98011227346002,24.919781524413047]}},{"type":"Feature","id":"locations-129","properties":{"id":156.0,"name":"The Dreadfort","size":3,"confirmed":1,"type":"Castle","layer":"locations","fid":"locations-129","slug":"the-dreadfort"},"geometry":{"type":"Point","coordinates":[19.914563960285374,27.358700427027216]}},{"type":"Feature","id":"locations-130","properties":{"id":157.0,"name":"Cerwyn","size":3,"confirmed":0,"type":"Castle","layer":"locations","fid":"locations-130","slug":"cerwyn"},"geometry":{"type":"Point","coordinates":[14.597533862249115,26.059812582339976]}},{"type":"Feature","id":"locations-131","properties":{"id":159.0,"name":"Winterfell","size":3,"confirmed":1,"type":"Castle","layer":"locations","fid":"locations-131","slug":"winterfell"},"geometry":{"type":"Point","coordinates":[14.560155794776101,26.611139077566936]}},{"type":"Feature","id":"locations-132","properties":{"id":162.0,"name":"Deepwood Motte","size":3,"confirmed":1,"type":"Castle","layer":"locations","fid":"locations-132","slug":"deepwood-motte"},"geometry":{"type":"Point","coordinates":[10.658820002280255,29.358427036833472]}},{"type":"Feature","id":"locations-133","properties":{"id":163.0,"name":"Last Hearth","size":3,"confirmed":1,"type":"Castle","layer":"locations","fid":"locations-133","slug":"last-hearth"},"geometry":{"type":"Point","coordinates":[19.367909723492534,31.330120096034964]}},{"type":"Feature","id":"locations-134","properties":{"id":164.0,"name":"Karhold","size":3,"confirmed":1,"type":"Castle","layer":"locations","fid":"locations-134","slug":"karhold"},"geometry":{"type":"Point","coordinates":[23.6383539322844,29.498594789857275]}},{"type":"Feature","id":"locations-135","properties":{"id":166.0,"name":"Castle Black","size":3,"confirmed":1,"type":"Castle","layer":"locations","fid":"locations-135","slug":"castle-black"},"geometry":{"type":"Point","coordinates":[18.853961295738596,34.89038102283956]}},{"type":"Feature","id":"locations-136","properties":{"id":168.0,"name":"Shadow Tower","size":3,"confirmed":1,"type":"Castle","layer":"locations","fid":"locations-136","slug":"shadow-tower"},"geometry":{"type":"Point","coordinates":[16.358975291914906,34.99317070839035]}},{"type":"Feature","id":"locations-137","properties":{"id":191.0,"name":"Lys","size":5,"confirmed":1,"type":"City","layer":"locations","fid":"locations-137","slug":"lys"},"geometry":{"type":"Point","coordinates":[31.69332747271893,-8.996142448913155]}},{"type":"Feature","id":"locations-138","properties":{"id":192.0,"name":"Tyrosh","size":5,"confirmed":1,"type":"City","layer":"locations","fid":"locations-138","slug":"tyrosh"},"geometry":{"type":"Point","coordinates":[28.511519479078594,-3.5623058900237154]}},{"type":"Feature","id":"locations-139","properties":{"id":193.0,"name":"Myr","size":5,"confirmed":1,"type":"City","layer":"locations","fid":"locations-139","slug":"myr"},"geometry":{"type":"Point","coordinates":[33.697726340959306,-2.5904761357253463]}},{"type":"Feature","id":"locations-140","properties":{"id":194.0,"name":"Pentos","size":5,"confirmed":1,"type":"City","layer":"locations","fid":"locations-140","slug":"pentos"},"geometry":{"type":"Point","coordinates":[31.127984202189584,4.632835403434626]}},{"type":"Feature","id":"locations-141","properties":{"id":195.0,"name":"Ghoyan Drohe","size":2,"confirmed":1,"type":"Ruin","layer":"locations","fid":"locations-141","slug":"ghoyan-drohe"},"geometry":{"type":"Point","coordinates":[35.09940387119733,5.595320640864728]}},{"type":"Feature","id":"locations-142","properties":{"id":196.0,"name":"Norvos","size":5,"confirmed":1,"type":"City","layer":"locations","fid":"locations-142","slug":"norvos"},"geometry":{"type":"Point","coordinates":[38.31391767387654,8.76311185920268]}},{"type":"Feature","id":"locations-143","properties":{"id":197.0,"name":"Evenfall Hall","size":3,"confirmed":1,"type":"Castle","layer":"locations","fid":"locations-143","slug":"evenfall-hall"},"geometry":{"type":"Point","coordinates":[24.799410153164867,0.27128215517730325]}},{"type":"Feature","id":"locations-144","properties":{"id":199.0,"name":"Braavos","size":3,"confirmed":1,"type":"Castle","layer":"locations","fid":"locations-144","slug":"braavos"},"geometry":{"type":"Point","coordinates":[30.976135803080446,16.24106148302259]}},{"type":"Feature","id":"locations-145","properties":{"id":200.0,"name":"Lorath","size":3,"confirmed":1,"type":"Castle","layer":"locations","fid":"locations-145","slug":"lorath"},"geometry":{"type":"Point","coordinates":[36.227754283038934,14.783316851575037]}},{"type":"Feature","id":"locations-146","properties":{"id":201.0,"name":"Qohor","size":5,"confirmed":1,"type":"City","layer":"locations","fid":"locations-146","slug":"qohor"},"geometry":{"type":"Point","coordinates":[44.955533037987735,4.747305735070746]}},{"type":"Feature","id":"locations-147","properties":{"id":202.0,"name":"Ar Noy","size":2,"confirmed":1,"type":"Ruin","layer":"locations","fid":"locations-147","slug":"ar-noy"},"geometry":{"type":"Point","coordinates":[42.02135474135612,2.579377821635923]}},{"type":"Feature","id":"locations-148","properties":{"id":203.0,"name":"Ny Sar","size":2,"confirmed":1,"type":"Ruin","layer":"locations","fid":"locations-148","slug":"ny-sar"},"geometry":{"type":"Point","coordinates":[38.71339576999437,3.3082501373596997]}},{"type":"Feature","id":"locations-149","properties":{"id":204.0,"name":"The Sorrows (Chroyane)","size":2,"confirmed":1,"type":"Ruin","layer":"locations","fid":"locations-149","slug":"the-sorrows-chroyane"},"geometry":{"type":"Point","coordinates":[40.48885397496255,-1.887301241389281]}},{"type":"Feature","id":"locations-150","properties":{"id":205.0,"name":"Selhorys","size":4,"confirmed":1,"type":"Town","layer":"locations","fid":"locations-150","slug":"selhorys"},"geometry":{"type":"Point","coordinates":[41.236415324422836,-5.344772482643073]}},{"type":"Feature","id":"locations-151","properties":{"id":206.0,"name":"Valysar","size":4,"confirmed":1,"type":"Town","layer":"locations","fid":"locations-151","slug":"valysar"},"geometry":{"type":"Point","coordinates":[41.180348223213315,-7.138919721347754]}},{"type":"Feature","id":"locations-152","properties":{"id":207.0,"name":"Volon Therys","size":4,"confirmed":1,"type":"Town","layer":"locations","fid":"locations-152","slug":"volon-therys"},"geometry":{"type":"Point","coordinates":[41.9279095726736,-8.260261745538173]}},{"type":"Feature","id":"locations-153","properties":{"id":208.0,"name":"Sar Mell","size":2,"confirmed":1,"type":"Ruin","layer":"locations","fid":"locations-153","slug":"sar-mell"},"geometry":{"type":"Point","coordinates":[42.37644638234977,-8.166816576855638]}},{"type":"Feature","id":"locations-154","properties":{"id":209.0,"name":"Volantis","size":5,"confirmed":1,"type":"City","layer":"locations","fid":"locations-154","slug":"volantis"},"geometry":{"type":"Point","coordinates":[43.63795615956399,-9.213402466100035]}},{"type":"Feature","id":"locations-155","properties":{"id":211.0,"name":null,"size":2,"confirmed":1,"type":"Ruin","layer":"locations","fid":"locations-155"},"geometry":{"type":"Point","coordinates":[53.99168084958891,-11.362641345798352]}},{"type":"Feature","id":"locations-156","properties":{"id":165.0,"name":"Queenscrown","size":1,"confirmed":1,"type":"Ruin","layer":"locations","fid":"locations-156","slug":"queenscrown"},"geometry":{"type":"Point","coordinates":[18.153122530619584,33.787728032385644]}},{"type":"Feature","id":"locations-158","properties":{"id":160.0,"name":"Crofters' Village","size":1,"confirmed":0,"type":"Town","layer":"locations","fid":"locations-158","slug":"crofters-village"},"geometry":{"type":"Point","coordinates":[14.130308018836438,26.826062965536767]}},{"type":"Feature","id":"locations-159","properties":{"id":161.0,"name":"Tumbledown Tower","size":1,"confirmed":0,"type":"Ruin","layer":"locations","fid":"locations-159","slug":"tumbledown-tower"},"geometry":{"type":"Point","coordinates":[14.19104737848009,27.60165786560181]}},{"type":"Feature","id":"locations-161","properties":{"id":190.0,"name":"Pennytree","size":1,"confirmed":0,"type":"Town","layer":"locations","fid":"locations-161","slug":"pennytree"},"geometry":{"type":"Point","coordinates":[15.513296515337961,8.926640904397118]}},{"type":"Feature","id":"locations-162","properties":{"id":198.0,"name":"Parchments","size":1,"confirmed":0,"type":"Castle","layer":"locations","fid":"locations-162","slug":"parchments"},"geometry":{"type":"Point","coordinates":[24.27611720854267,1.4019686962359827]}},{"type":"Feature","id":"locations-163","properties":{"id":142.0,"name":"Baelish Keep","size":1,"confirmed":0,"type":"Castle","layer":"locations","fid":"locations-163","slug":"baelish-keep"},"geometry":{"type":"Point","coordinates":[25.4371734294232,15.958389847757914]}},{"type":"Feature","id":"locations-165","properties":{"id":189.0,"name":"Fishing Village","size":1,"confirmed":0,"type":"Town","layer":"locations","fid":"locations-165","slug":"fishing-village"},"geometry":{"type":"Point","coordinates":[5.140882791576549,24.48058923160513]}},{"type":"Feature","id":"locations-166","properties":{"id":212.0,"name":"Mantarys","size":5,"confirmed":1,"type":"City","layer":"locations","fid":"locations-166","slug":"mantarys"},"geometry":{"type":"Point","coordinates":[56.53338943775387,-11.647649110280085]}},{"type":"Feature","id":"locations-167","properties":{"id":213.0,"name":null,"size":2,"confirmed":1,"type":"Ruin","layer":"locations","fid":"locations-167"},"geometry":{"type":"Point","coordinates":[52.889027859135,-16.30121851067031]}},{"type":"Feature","id":"locations-168","properties":{"id":214.0,"name":"Oros","size":2,"confirmed":1,"type":"Ruin","layer":"locations","fid":"locations-168","slug":"oros"},"geometry":{"type":"Point","coordinates":[55.869928740107866,-18.53455804218291]}},{"type":"Feature","id":"locations-169","properties":{"id":215.0,"name":"Elyria","size":5,"confirmed":1,"type":"City","layer":"locations","fid":"locations-169","slug":"elyria"},"geometry":{"type":"Point","coordinates":[57.729487596890316,-13.76885443937362]}},{"type":"Feature","id":"locations-170","properties":{"id":216.0,"name":"Tolos","size":5,"confirmed":1,"type":"City","layer":"locations","fid":"locations-170","slug":"tolos"},"geometry":{"type":"Point","coordinates":[59.13116512712834,-13.21752794414666]}},{"type":"Feature","id":"locations-171","properties":{"id":217.0,"name":"Ghozai","size":2,"confirmed":1,"type":"Ruin","layer":"locations","fid":"locations-171","slug":"ghozai"},"geometry":{"type":"Point","coordinates":[60.691699444126684,-15.273321655162434]}},{"type":"Feature","id":"locations-172","properties":{"id":218.0,"name":"Velos","size":2,"confirmed":1,"type":"Ruin","layer":"locations","fid":"locations-172","slug":"velos"},"geometry":{"type":"Point","coordinates":[61.04679108512031,-17.13288051194489]}},{"type":"Feature","id":"locations-173","properties":{"id":219.0,"name":null,"size":2,"confirmed":1,"type":"Ruin","layer":"locations","fid":"locations-173"},"geometry":{"type":"Point","coordinates":[60.66366589352192,-16.52548691550841]}},{"type":"Feature","id":"locations-174","properties":{"id":220.0,"name":"Astapor","size":5,"confirmed":1,"type":"City","layer":"locations","fid":"locations-174","slug":"astapor"},"geometry":{"type":"Point","coordinates":[64.91542106857729,-15.23594358768942]}},{"type":"Feature","id":"locations-175","properties":{"id":221.0,"name":"Yunkai","size":5,"confirmed":1,"type":"City","layer":"locations","fid":"locations-175","slug":"yunkai"},"geometry":{"type":"Point","coordinates":[65.84987275540263,-11.245834884945147]}},{"type":"Feature","id":"locations-176","properties":{"id":222.0,"name":"Meereen","size":5,"confirmed":1,"type":"City","layer":"locations","fid":"locations-176","slug":"meereen"},"geometry":{"type":"Point","coordinates":[67.13007156635337,-9.610544433000776]}},{"type":"Feature","id":"locations-177","properties":{"id":224.0,"name":"Vaes Dothrak","size":5,"confirmed":0,"type":"City","layer":"locations","fid":"locations-177","slug":"vaes-dothrak"},"geometry":{"type":"Point","coordinates":[64.93878236074791,-1.144412150363081]}},{"type":"Feature","id":"locations-178","properties":{"id":225.0,"name":"Old Ghis","size":2,"confirmed":1,"type":"Ruin","layer":"locations","fid":"locations-178","slug":"old-ghis"},"geometry":{"type":"Point","coordinates":[65.80782242949549,-19.702622650714616]}},{"type":"Feature","id":"locations-179","properties":{"id":226.0,"name":"New Ghis","size":5,"confirmed":1,"type":"City","layer":"locations","fid":"locations-179","slug":"new-ghis"},"geometry":{"type":"Point","coordinates":[66.77030766692559,-23.571252634171586]}},{"type":"Feature","id":"locations-180","properties":{"id":227.0,"name":"Zamettar","size":2,"confirmed":1,"type":"Ruin","layer":"locations","fid":"locations-180","slug":"zamettar"},"geometry":{"type":"Point","coordinates":[64.63975782096378,-31.205722915534736]}},{"type":"Feature","id":"locations-181","properties":{"id":228.0,"name":"Yeen","size":2,"confirmed":1,"type":"Ruin","layer":"locations","fid":"locations-181","slug":"yeen"},"geometry":{"type":"Point","coordinates":[65.6910159686423,-33.97637216697191]}},{"type":"Feature","id":"locations-182","properties":{"id":229.0,"name":"Gogossos","size":2,"confirmed":1,"type":"Ruin","layer":"locations","fid":"locations-182","slug":"gogossos"},"geometry":{"type":"Point","coordinates":[61.39253820924568,-33.60259149224176]}},{"type":"Feature","id":"locations-183","properties":{"id":230.0,"name":"Flint's Finger","size":3,"confirmed":1,"type":"Castle","layer":"locations","fid":"locations-183","slug":"flint-s-finger"},"geometry":{"type":"Point","coordinates":[8.016657857781524,18.511779082008186]}},{"type":"Feature","id":"locations-184","properties":{"id":231.0,"name":"Barrowton","size":4,"confirmed":1,"type":"Town","layer":"locations","fid":"locations-184","slug":"barrowton"},"geometry":{"type":"Point","coordinates":[11.203138109855981,21.857116120842957]}},{"type":"Feature","id":"locations-185","properties":{"id":232.0,"name":"Torrhen's Square","size":3,"confirmed":1,"type":"Castle","layer":"locations","fid":"locations-185","slug":"torrhen-s-square"},"geometry":{"type":"Point","coordinates":[11.866598807501983,24.604404080109493]}},{"type":"Feature","id":"locations-186","properties":{"id":233.0,"name":"Bhorash","size":2,"confirmed":1,"type":"Ruin","layer":"locations","fid":"locations-186","slug":"bhorash"},"geometry":{"type":"Point","coordinates":[62.193837082112005,-10.130148540433204]}},{"type":"Feature","id":"locations-187","properties":{"id":234.0,"name":"Pyke","size":3,"confirmed":1,"type":"Castle","layer":"locations","fid":"locations-187","slug":"pyke"},"geometry":{"type":"Point","coordinates":[7.548877424568763,11.060546672953011]}},{"type":"Feature","id":"locations-188","properties":{"id":239.0,"name":"Ten Towers","size":3,"confirmed":1,"type":"Castle","layer":"locations","fid":"locations-188","slug":"ten-towers"},"geometry":{"type":"Point","coordinates":[9.131121632542904,12.137260573815077]}},{"type":"Feature","id":"locations-189","properties":{"id":240.0,"name":"Faircastle","size":3,"confirmed":1,"type":"Castle","layer":"locations","fid":"locations-189","slug":"faircastle"},"geometry":{"type":"Point","coordinates":[7.00395514547394,7.351135977909905]}},{"type":"Feature","id":"locations-190","properties":{"id":241.0,"name":"Tyria","size":2,"confirmed":1,"type":"Ruin","layer":"locations","fid":"locations-190","slug":"tyria"},"geometry":{"type":"Point","coordinates":[55.383862068965335,-19.967196592133206]}},{"type":"Feature","id":"locations-191","properties":{"id":242.0,"name":"Valyria","size":2,"confirmed":1,"type":"Ruin","layer":"locations","fid":"locations-191","slug":"valyria"},"geometry":{"type":"Point","coordinates":[54.75359051724119,-22.232234981141833]}},{"type":"Feature","id":"locations-192","properties":{"id":243.0,"name":null,"size":2,"confirmed":1,"type":"Ruin","layer":"locations","fid":"locations-192"},"geometry":{"type":"Point","coordinates":[57.79990301724119,-21.930229862607348]}},{"type":"Feature","id":"locations-193","properties":{"id":244.0,"name":null,"size":2,"confirmed":1,"type":"Ruin","layer":"locations","fid":"locations-193"},"geometry":{"type":"Point","coordinates":[52.317853582973946,-20.77473201777976]}},{"type":"Feature","id":"locations-194","properties":{"id":245.0,"name":null,"size":2,"confirmed":1,"type":"Ruin","layer":"locations","fid":"locations-194"},"geometry":{"type":"Point","coordinates":[54.083926993534305,-24.6417106007539]}},{"type":"Feature","id":"locations-195","properties":{"id":246.0,"name":"Qarth","size":5,"confirmed":0,"type":"City","layer":"locations","fid":"locations-195","slug":"qarth"},"geometry":{"type":"Point","coordinates":[87.98400154903003,-34.588183526400464]}},{"type":"Feature","id":"locations-196","properties":{"id":185.0,"name":"Eastwatch-by-the-Sea","size":3,"confirmed":1,"type":"Castle","layer":"locations","fid":"locations-196","slug":"eastwatch-by-the-sea"},"geometry":{"type":"Point","coordinates":[20.72055491095518,34.7615510957229]}},{"type":"Feature","id":"locations-197","properties":{"id":167.0,"name":"Mole's Town","size":1,"confirmed":0,"type":"Town","layer":"locations","fid":"locations-197","slug":"mole-s-town"},"geometry":{"type":"Point","coordinates":[18.88199484634336,34.6007009999237]}},{"type":"Feature","id":"locations-198","properties":{"id":169.0,"name":"Westwatch-by-the-Bridge","size":1,"confirmed":1,"type":"Ruin","layer":"locations","fid":"locations-198","slug":"westwatch-by-the-bridge"},"geometry":{"type":"Point","coordinates":[16.05060623526254,34.99317070839035]}},{"type":"Feature","id":"locations-199","properties":{"id":170.0,"name":"Sentinel Stand","size":1,"confirmed":1,"type":"Ruin","layer":"locations","fid":"locations-199","slug":"sentinel-stand"},"geometry":{"type":"Point","coordinates":[16.709394674474417,35.016532000560986]}},{"type":"Feature","id":"locations-200","properties":{"id":171.0,"name":"Greyguard","size":1,"confirmed":1,"type":"Ruin","layer":"locations","fid":"locations-200","slug":"greyguard"},"geometry":{"type":"Point","coordinates":[17.073830832336302,34.92775909031258]}},{"type":"Feature","id":"locations-201","properties":{"id":172.0,"name":"Stonedoor","size":1,"confirmed":1,"type":"Ruin","layer":"locations","fid":"locations-201","slug":"stonedoor"},"geometry":{"type":"Point","coordinates":[17.414905698027557,35.053910068034]}},{"type":"Feature","id":"locations-202","properties":{"id":173.0,"name":"Hoarfrost Hill","size":1,"confirmed":1,"type":"Ruin","layer":"locations","fid":"locations-202","slug":"hoarfrost-hill"},"geometry":{"type":"Point","coordinates":[17.653190878168022,35.03989329273161]}},{"type":"Feature","id":"locations-203","properties":{"id":174.0,"name":"Icemark","size":1,"confirmed":1,"type":"Ruin","layer":"locations","fid":"locations-203","slug":"icemark"},"geometry":{"type":"Point","coordinates":[17.93352638421563,34.99317070839035]}},{"type":"Feature","id":"locations-204","properties":{"id":175.0,"name":"Nightfort","size":1,"confirmed":1,"type":"Ruin","layer":"locations","fid":"locations-204","slug":"nightfort"},"geometry":{"type":"Point","coordinates":[18.167139305921964,34.95112038248321]}},{"type":"Feature","id":"locations-205","properties":{"id":176.0,"name":"Deep Lake","size":1,"confirmed":1,"type":"Ruin","layer":"locations","fid":"locations-205","slug":"deep-lake"},"geometry":{"type":"Point","coordinates":[18.354029643287035,34.9137423150102]}},{"type":"Feature","id":"locations-206","properties":{"id":177.0,"name":"Queensgate","size":1,"confirmed":1,"type":"Ruin","layer":"locations","fid":"locations-206","slug":"queensgate"},"geometry":{"type":"Point","coordinates":[18.568953531256867,34.871691989103056]}},{"type":"Feature","id":"locations-207","properties":{"id":178.0,"name":"Oakensheild","size":1,"confirmed":1,"type":"Ruin","layer":"locations","fid":"locations-207","slug":"oakensheild"},"geometry":{"type":"Point","coordinates":[19.134296801786203,34.81095262945941]}},{"type":"Feature","id":"locations-208","properties":{"id":179.0,"name":"Woodswatch-by-the-Pool","size":1,"confirmed":1,"type":"Ruin","layer":"locations","fid":"locations-208","slug":"woodswatch-by-the-pool"},"geometry":{"type":"Point","coordinates":[19.37258198192667,34.79693585415703]}},{"type":"Feature","id":"locations-209","properties":{"id":180.0,"name":"Sable Hall","size":1,"confirmed":1,"type":"Ruin","layer":"locations","fid":"locations-209","slug":"sable-hall"},"geometry":{"type":"Point","coordinates":[19.68095103857904,34.75021326981576]}},{"type":"Feature","id":"locations-210","properties":{"id":181.0,"name":"Rimegate","size":1,"confirmed":1,"type":"Ruin","layer":"locations","fid":"locations-210","slug":"rimegate"},"geometry":{"type":"Point","coordinates":[19.96595880306077,34.73152423607925]}},{"type":"Feature","id":"locations-211","properties":{"id":182.0,"name":"Long Barrow","size":1,"confirmed":1,"type":"Ruin","layer":"locations","fid":"locations-211","slug":"long-barrow"},"geometry":{"type":"Point","coordinates":[20.190227207898854,34.69414616860624]}},{"type":"Feature","id":"locations-212","properties":{"id":183.0,"name":"Torches","size":1,"confirmed":1,"type":"Ruin","layer":"locations","fid":"locations-212","slug":"torches"},"geometry":{"type":"Point","coordinates":[20.409823354302812,34.670784876435604]}},{"type":"Feature","id":"locations-213","properties":{"id":184.0,"name":"Greenguard","size":1,"confirmed":1,"type":"Ruin","layer":"locations","fid":"locations-213","slug":"greenguard"},"geometry":{"type":"Point","coordinates":[20.57335239949725,34.62873455052846]}},{"type":"Feature","id":"locations-214","properties":{"id":187.0,"name":"Craster's Keep","size":1,"confirmed":1,"type":"Town","layer":"locations","fid":"locations-214","slug":"craster-s-keep"},"geometry":{"type":"Point","coordinates":[17.62515732756326,36.296730811511715]}},{"type":"Feature","id":"locations-215","properties":{"id":188.0,"name":"Fist of the First Men","size":1,"confirmed":1,"type":"Landmark","layer":"locations","fid":"locations-215","slug":"fist-of-the-first-men"},"geometry":{"type":"Point","coordinates":[16.24216883106174,37.212493464600556]}},{"type":"Feature","id":"locations-216","properties":{"id":114.0,"name":"Oxcross","size":1,"confirmed":0,"type":"Town","layer":"locations","fid":"locations-216","slug":"oxcross"},"geometry":{"type":"Point","coordinates":[8.112439155681159,5.969101315594891]}},{"type":"Feature","id":"locations-217","properties":{"id":118.0,"name":"Golden Tooth","size":1,"confirmed":1,"type":"Castle","layer":"locations","fid":"locations-217","slug":"golden-tooth"},"geometry":{"type":"Point","coordinates":[10.644803226977865,7.296022710886888]}},{"type":"Feature","id":"locations-218","properties":{"id":121.0,"name":"Pendric Hills","size":1,"confirmed":0,"type":"Landmark","layer":"locations","fid":"locations-218","slug":"pendric-hills"},"geometry":{"type":"Point","coordinates":[9.177714078662062,8.763111859202702]}},{"type":"Feature","id":"locations-219","properties":{"id":125.0,"name":"Nunn's Deep","size":1,"confirmed":0,"type":"Landmark","layer":"locations","fid":"locations-219","slug":"nunn-s-deep"},"geometry":{"type":"Point","coordinates":[9.813141225703303,9.501328691794718]}},{"type":"Feature","id":"locations-220","properties":{"id":235.0,"name":"Pebbleton","size":1,"confirmed":0,"type":"Town","layer":"locations","fid":"locations-220","slug":"pebbleton"},"geometry":{"type":"Point","coordinates":[7.043347117456695,11.58577296605646]}},{"type":"Feature","id":"locations-221","properties":{"id":236.0,"name":"Hammerhorn","size":1,"confirmed":0,"type":"Castle","layer":"locations","fid":"locations-221","slug":"hammerhorn"},"geometry":{"type":"Point","coordinates":[6.097939789870489,11.854951441271973]}},{"type":"Feature","id":"locations-222","properties":{"id":237.0,"name":"Nagga's Ribs","size":1,"confirmed":0,"type":"Landmark","layer":"locations","fid":"locations-222","slug":"nagga-s-ribs"},"geometry":{"type":"Point","coordinates":[6.616600754310144,12.130695245151284]}},{"type":"Feature","id":"locations-223","properties":{"id":238.0,"name":"Castle Goodbrother","size":1,"confirmed":0,"type":"Castle","layer":"locations","fid":"locations-223","slug":"castle-goodbrother"},"geometry":{"type":"Point","coordinates":[6.8201259428877306,12.31452444773749]}},{"type":"Feature","id":"locations-225","properties":{"id":38.0,"name":"Crossroads Inn","size":1,"confirmed":0,"type":"Landmark","layer":"locations","fid":"locations-225","slug":"crossroads-inn"},"geometry":{"type":"Point","coordinates":[17.34014956308152,9.819042265315353]}},{"type":"Feature","id":"locations-226","properties":{"id":5.0,"name":"Brindlewood","size":1,"confirmed":0,"type":"Town","layer":"locations","fid":"locations-226","slug":"brindlewood"},"geometry":{"type":"Point","coordinates":[18.650718053854106,5.5275728935699675]}},{"type":"Feature","id":"locations-230","properties":{"id":16.0,"name":"Rushing Falls","size":1,"confirmed":0,"type":"Landmark","layer":"locations","fid":"locations-230","slug":"rushing-falls"},"geometry":{"type":"Point","coordinates":[16.396353359387916,7.922105341059897]}},{"type":"Feature","id":"locations-231","properties":{"id":17.0,"name":"Tumblers Falls","size":1,"confirmed":0,"type":"Landmark","layer":"locations","fid":"locations-231","slug":"tumblers-falls"},"geometry":{"type":"Point","coordinates":[14.648928705024511,6.847485901210739]}},{"type":"Feature","id":"locations-232","properties":{"id":19.0,"name":"Hollow Hill","size":1,"confirmed":0,"type":"Landmark","layer":"locations","fid":"locations-232","slug":"hollow-hill"},"geometry":{"type":"Point","coordinates":[13.406107961546793,6.52042781082185]}},{"type":"Feature","id":"locations-234","properties":{"id":23.0,"name":"Mummer's Ford","size":1,"confirmed":0,"type":"Landmark","layer":"locations","fid":"locations-234","slug":"mummer-s-ford"},"geometry":{"type":"Point","coordinates":[12.742647263900793,7.239955609677374]}},{"type":"Feature","id":"locations-235","properties":{"id":24.0,"name":"Sherrer","size":1,"confirmed":0,"type":"Town","layer":"locations","fid":"locations-235","slug":"sherrer"},"geometry":{"type":"Point","coordinates":[12.751991780769046,7.043720755444049]}},{"type":"Feature","id":"locations-236","properties":{"id":25.0,"name":"Wendish Town","size":1,"confirmed":0,"type":"Town","layer":"locations","fid":"locations-236","slug":"wendish-town"},"geometry":{"type":"Point","coordinates":[12.583790477140482,7.081098822917063]}},{"type":"Feature","id":"locations-237","properties":{"id":26.0,"name":"Lord Goodbrook's Village","size":1,"confirmed":0,"type":"Town","layer":"locations","fid":"locations-237","slug":"lord-goodbrook-s-village"},"geometry":{"type":"Point","coordinates":[14.658273221892761,8.679011207388427]}},{"type":"Feature","id":"locations-238","properties":{"id":27.0,"name":"Sallydance","size":1,"confirmed":0,"type":"Town","layer":"locations","fid":"locations-238","slug":"sallydance"},"geometry":{"type":"Point","coordinates":[14.20039189534834,8.76311185920271]}},{"type":"Feature","id":"locations-239","properties":{"id":28.0,"name":"Lady of the Leaves","size":1,"confirmed":0,"type":"Town","layer":"locations","fid":"locations-239","slug":"lady-of-the-leaves"},"geometry":{"type":"Point","coordinates":[14.032190591719775,9.006069297777302]}},{"type":"Feature","id":"locations-240","properties":{"id":29.0,"name":"Lord Lychester's Keep","size":1,"confirmed":0,"type":"Castle","layer":"locations","fid":"locations-240","slug":"lord-lychester-s-keep"},"geometry":{"type":"Point","coordinates":[14.611550637551495,9.426572556848711]}},{"type":"Feature","id":"locations-242","properties":{"id":35.0,"name":"Inn of the Kneeling Man","size":1,"confirmed":1,"type":"Landmark","layer":"locations","fid":"locations-242","slug":"inn-of-the-kneeling-man"},"geometry":{"type":"Point","coordinates":[14.873197109862593,10.276923591859777]}},{"type":"Feature","id":"locations-243","properties":{"id":36.0,"name":"BWB hideout","size":1,"confirmed":0,"type":"Landmark","layer":"locations","fid":"locations-243","slug":"bwb-hideout"},"geometry":{"type":"Point","coordinates":[16.013228167789524,10.36102424367406]}},{"type":"Feature","id":"locations-244","properties":{"id":223.0,"name":"Lhazarene Village","size":1,"confirmed":0,"type":"Town","layer":"locations","fid":"locations-244","slug":"lhazarene-village"},"geometry":{"type":"Point","coordinates":[73.03580622708961,-7.138919721347712]}},{"type":"Feature","id":"locations-245","properties":{"id":247.0,"name":"Lord Hewett's Town","size":1,"confirmed":0,"type":"Town","layer":"locations","fid":"locations-245","slug":"lord-hewett-s-town"},"geometry":{"type":"Point","coordinates":[7.6867493265083695,-1.922390759697838]}},{"type":"Feature","id":"locations-246","properties":{"id":250.0,"name":"The Haunted Forest","size":1,"confirmed":1,"type":"Landmark","layer":"locations","fid":"locations-246","slug":"the-haunted-forest"},"geometry":{"type":"Point","coordinates":[16.981650000000077,37.77164999999997]}},{"type":"Feature","id":"locations-247","properties":{"id":251.0,"name":"Lonely Hills","size":1,"confirmed":1,"type":"Landmark","layer":"locations","fid":"locations-247","slug":"lonely-hills"},"geometry":{"type":"Point","coordinates":[19.09845000000008,29.115449999999957]}},{"type":"Feature","id":"locations-248","properties":{"id":252.0,"name":"Hornwood","size":1,"confirmed":1,"type":"Landmark","layer":"locations","fid":"locations-248","slug":"hornwood"},"geometry":{"type":"Point","coordinates":[18.79605000000008,25.486649999999955]}},{"type":"Feature","id":"locations-249","properties":{"id":253.0,"name":"Wolfswood","size":1,"confirmed":1,"type":"Landmark","layer":"locations","fid":"locations-249","slug":"wolfswood"},"geometry":{"type":"Point","coordinates":[15.73425000000008,28.85084999999996]}},{"type":"Feature","id":"locations-250","properties":{"id":255.0,"name":"Kingswood","size":1,"confirmed":1,"type":"Landmark","layer":"locations","fid":"locations-250","slug":"kingswood"},"geometry":{"type":"Point","coordinates":[20.38365000000008,2.012849999999956]}},{"type":"Feature","id":"locations-251","properties":{"id":256.0,"name":"Rainwood","size":1,"confirmed":1,"type":"Landmark","layer":"locations","fid":"locations-251","slug":"rainwood"},"geometry":{"type":"Point","coordinates":[22.802850000000085,-3.0523500000000467]}},{"type":"Feature","id":"locations-252","properties":{"id":257.0,"name":"The Dothraki Sea","size":1,"confirmed":1,"type":"Landmark","layer":"locations","fid":"locations-252","slug":"the-dothraki-sea"},"geometry":{"type":"Point","coordinates":[61.245450000000105,-1.2757500000000483]}},{"type":"Feature","id":"locations-253","properties":{"id":260.0,"name":"Forest of Qohor","size":1,"confirmed":1,"type":"Landmark","layer":"locations","fid":"locations-253","slug":"forest-of-qohor"},"geometry":{"type":"Point","coordinates":[49.1494500000001,6.057449999999957]}},{"type":"Feature","id":"locations-254","properties":{"id":186.0,"name":"Whitetree","size":1,"confirmed":1,"type":"Town","layer":"locations","fid":"locations-254","slug":"whitetree"},"geometry":{"type":"Point","coordinates":[18.167139305921964,35.40900170902763]}}]}