{"type":"FeatureCollection","features":[{"type":"Feature","id":"roads-0","properties":{"id":1,"name":"Unnamed road","size":1,"continent":"Westeros","layer":"roads","fid":"roads-0","slug":"unnamed-road"},"geometry":{"type":"LineString","coordinates":[[22.71324676232731,-0.6561611439968544],[22.872403857356314,-0.4988781821269441],[22.955791479506146,-0.27790098342987335],[22.93911395507618,-0.13614202577515044],[22.8265406651739,0.05148012406198177],[22.713967375271622,0.3266592771564376],[22.68478170751918,0.5726527624984641],[22.45963512771462,0.7769524367655691],[22.23031916680257,0.9312195377427628],[21.950970632600615,1.1313498309023728],[21.55904880849638,1.5149328927916201],[21.08373936224231,1.9693954335082324],[20.520872912730912,2.3738254009349475],[20.09976542087423,2.678190221781854],[19.33676867820322,3.2619035768307114]]}},{"type":"Feature","id":"roads-1","properties":{"id":2,"name":"Roseroad","size":2,"continent":"Westeros","layer":"roads","fid":"roads-1","slug":"roseroad"},"geometry":{"type":"LineString","coordinates":[[19.07822970057675,3.9536058335734623],[19.17600263537693,3.5796335158834935],[19.33676867820322,3.2619035768307114],[19.351510375657902,2.903634528743339],[19.270058580483344,2.5572781696645777],[19.053250762893764,2.2904377787850976],[18.561263792209726,1.9652260524007374],[17.694032521851423,1.581642990511483],[16.368169329669012,1.24809250191214],[15.392534150515916,0.9895908732476428],[14.419988041752289,0.7361718693729031],[14.154227961590834,0.7602749123355892],[14.095856626085947,0.710242339045692],[13.733120469734157,0.48926514034862123],[13.099374541395395,0.21408598725415828],[12.765824052796047,0.12235960288933256],[12.394749134229274,-0.09861759580773821],[12.102892456704842,-0.4613537521595319],[11.735986919245555,-1.0158814394559457],[11.444130241721123,-1.5162071723549602],[11.035530893186921,-2.074904240758869],[10.885433173317216,-2.366760918283312],[10.802045551167378,-2.558552449227932],[10.714887103489763,-2.7680219562221495]]}},{"type":"Feature","id":"roads-2","properties":{"id":3,"name":"Unnamed road","size":1,"continent":"Westeros","layer":"roads","fid":"roads-2","slug":"unnamed-road"},"geometry":{"type":"LineString","coordinates":[[10.714887103489763,-2.7680219562221495],[10.635270306867707,-3.0255231332670363],[10.526866398072917,-3.3507348596513964],[10.368429915988226,-3.500832579521102],[10.226670958333502,-3.634252774960842],[10.034879427388878,-3.734317921540651],[9.868104183089203,-3.934448214700261],[9.843087896444253,-4.192949843364751],[9.692990176574545,-4.659920527403841],[9.451166072340017,-5.01848730264814],[8.884130241721126,-5.677249517631857],[8.450514606541972,-6.110865152811002],[8.12113349905012,-6.406891211442897],[7.752675256253397,-6.57124032160133]]}},{"type":"Feature","id":"roads-3","properties":{"id":4,"name":"Oceanroad","size":2,"continent":"Westeros","layer":"roads","fid":"roads-3","slug":"oceanroad"},"geometry":{"type":"LineString","coordinates":[[10.714887103489763,-2.7680219562221495],[10.576898971362823,-2.7545133612800328],[10.401784964848167,-2.733666455742572],[10.27670353162341,-2.6294319280552756],[10.105758906216243,-2.521028019260484],[9.93898366191657,-2.320897726100874],[9.530384313382367,-1.8872820909217296],[9.030058580483344,-1.4203114068826395],[8.621459231949144,-1.0617446316383408],[8.521394085369339,-0.9950345339184707],[7.983543922502888,-0.7865654785438778],[7.700026007193443,-0.6531452831041449],[7.283087896444258,-0.4279987032995791],[7.13299017657455,-0.27790098342987335],[6.945368026737417,-0.03607687919534186],[6.824455974620153,0.2099166061466704],[6.782762163545234,0.5726527624984641],[6.782762163545233,0.8936951077753434],[6.749407114685298,1.135519212009875],[6.615986919245558,1.394020840674365],[6.540938059310705,1.7776039025636194],[6.545107440418197,2.011089244583154],[6.632664443675526,2.2320664432802246],[6.778592782437741,2.4530436419772883],[6.937029264522431,2.674020840674366],[6.987061837812334,2.882489896048952],[7.0037393622423005,3.1701771924658857],[6.99956998113481,3.432848202237885],[7.041263792209728,3.766398690837228],[7.191361512079435,4.029069700609213],[7.2580716097993045,4.241708137091301],[7.278918515336764,4.375128332531041],[7.370644899701586,4.55441172015319],[7.349797994164126,4.900470352075018],[7.3648778062208775,5.221539966134607]]}},{"type":"Feature","id":"roads-4","properties":{"id":5,"name":"Unnamed road","size":1,"continent":"Westeros","layer":"roads","fid":"roads-4","slug":"unnamed-road"},"geometry":{"type":"LineString","coordinates":[[7.3648778062208775,5.221539966134607],[7.487387570711356,5.359102273899104],[7.574944573968685,5.542555042628749],[7.737550437160868,5.721838430250898],[7.933511349212985,5.8927830556580645],[8.112439155681159,5.969101315594891],[8.333771935532203,6.047050156635265],[8.525563466476829,6.213825400934937],[8.696508091883995,6.38477002634211],[8.96279019069223,6.455016192744068],[9.092599297095722,6.618255368361659],[9.209341968105493,6.697473609404007],[9.330254020222757,6.793369374876313],[9.44699669123253,6.776691850446348],[9.609602554424711,6.7808612315538355],[9.705498319897025,6.835063185951228],[9.772208417616895,6.9267895703160605],[9.826410372014289,6.893434521456122],[9.838918515336765,6.864248853703671],[9.918136756379111,6.943467094746019],[9.993185616313964,6.935128332531036],[10.09742014400126,6.955975238068497],[10.168299622828622,7.022685335788374],[10.243348482763475,7.089395433508237],[10.31839734269833,7.131089244583151],[10.405954345955656,7.1185811012606806],[10.439309394815592,7.131089244583151],[10.464325681460544,7.197799342303021],[10.52686639807292,7.260340058915411],[10.644803226977865,7.296022710886888],[10.83540060002732,7.293695107775335],[10.885433173317223,7.3937602543551435],[10.998006463219502,7.42294592210758],[11.01885336875696,7.510502925364918],[11.08973284758432,7.535519212009866],[11.1522735641967,7.62307621526719],[11.269016235206474,7.69812507520205],[11.460807766151097,7.773173935136903],[11.669276821525692,7.856561557286739],[11.823543922502889,7.844053413964268],[11.981069139138121,7.996861476005911]]}},{"type":"Feature","id":"roads-5","properties":{"id":6,"name":"Riverroad","size":1,"continent":"Westeros","layer":"roads","fid":"roads-5","slug":"riverroad"},"geometry":{"type":"LineString","coordinates":[[11.981069139138121,7.996861476005911],[12.102892456704845,8.110893804843741],[12.1779413166397,8.260991524713454],[12.31553089318693,8.494476866732995],[12.523999948561523,8.727962208752544],[12.728299622828624,8.998971980739505],[12.895074867128299,9.149069700609218],[13.116052065825366,9.261642990511497],[13.312012977877485,9.353369374876316],[13.587192130971948,9.528483381390977],[13.874879427388885,9.695258625690649],[14.070840339441002,9.753629961195536],[14.19592177266576,9.874542013312805],[14.295986919245564,10.00379282764505],[14.504455974620155,10.112196736439834],[14.667061837812339,10.153890547514756],[14.867192130971949,10.178906834159704],[15.263283336183674,10.124704879762312],[15.463413629343284,10.04965601982746],[15.78862535572765,9.941252111032675],[16.08465141435957,9.832848202237884],[16.33064489970159,9.703597387905639],[16.614162815011035,9.607701622433325],[16.881003205890515,9.540991524713455],[16.989407114685307,9.582685335788376],[17.172859883414947,9.67858110126069],[17.26875564888726,9.786985010055474],[17.34014956308152,9.819042265315353]]}},{"type":"Feature","id":"roads-6","properties":{"id":7,"name":"Unnamed road","size":2,"continent":"Westeros","layer":"roads","fid":"roads-6","slug":"unnamed-road"},"geometry":{"type":"LineString","coordinates":[[17.34014956308152,9.819042265315353],[17.377527630554535,9.370505455639183],[18.1151400137081,7.860730938394241],[18.50821417161322,6.268125855379012],[18.650718053854106,5.5275728935699675],[18.802566452963266,4.487995391976725],[19.07822970057675,3.9536058335734623]]}},{"type":"Feature","id":"roads-7","properties":{"id":8,"name":"Unnamed road","size":1,"continent":"Westeros","layer":"roads","fid":"roads-7","slug":"unnamed-road"},"geometry":{"type":"LineString","coordinates":[[19.07822970057675,3.9536058335734623],[19.282566723805825,4.1333042282965025],[19.42432568146055,4.291740710381191],[19.616117212405175,4.425160905820931],[19.986983966014368,4.621154757349338],[20.074749134229283,4.758711394420281],[20.24986314074394,4.8504377787851],[20.398142708217517,5.041658016420776],[20.591752391558277,5.209004554029406],[20.733511349212996,5.359102273899104],[20.883609069082706,5.5508938048437315],[20.919099523622627,5.8382780794393625],[20.91696411794264,6.126268397677613],[20.775205160287914,6.534867746211823],[20.600091153773256,6.868418234811166],[20.550058580483352,7.110242339045698],[20.32491200067879,7.502164163149935],[20.20816932966902,7.835714651749285],[20.171538174162347,8.230474397712257],[20.541719818268366,8.160926378133652],[20.85859278243775,8.302685335788375],[21.250514606541984,8.319362860218341],[21.62575890621625,8.294346573573392],[21.967648157030585,8.202620189208574],[22.35123121891984,8.11923256705873],[22.61807160979932,8.127571329273714],[22.801524378528963,8.35271790907828],[22.86823447624883,8.444444293443105],[23.060026007193457,8.511154391162968],[23.168429915988245,8.519493153377951],[23.26849506256805,8.67792963546264],[23.41859278243776,8.761317257612482],[23.668755648887274,8.844704879762318],[23.90224099090682,8.961447550772093],[23.91868943833201,9.183615118274119]]}},{"type":"Feature","id":"roads-8","properties":{"id":9,"name":"Goldroad","size":2,"continent":"Westeros","layer":"roads","fid":"roads-8","slug":"goldroad"},"geometry":{"type":"LineString","coordinates":[[19.07822970057675,3.9536058335734623],[18.790579753121776,3.8414475507720596],[18.54041688667226,3.808092501912135],[18.323609069082686,3.7997537396971452],[17.981719818268353,3.966528983996824],[17.606475518594088,4.233369374876304],[17.022762163545227,4.616952436765551],[16.64751786387096,4.858776541000076],[16.372338710776496,4.950502925364901],[16.122175844326986,4.9421641631499185],[15.788625355727635,4.925486638719946],[14.979765420874216,4.658646247840473],[14.387713303610372,4.483532241325811],[13.628885942046855,4.158320514941451],[13.28699669123252,4.12496546608152],[12.661589525108743,4.233369374876311],[12.16126379220972,4.316756997026147],[11.836052065825356,4.5419035768307054],[11.519179101655975,4.717017583345367],[11.270885857150851,5.05333866250605],[10.96882079546705,5.1506332185245185],[10.768690502307441,5.200665791814416],[10.551882684717864,5.234020840674354],[10.476833824783013,5.325747225039173],[10.42680125149311,5.442489896048947],[10.193315909473565,5.509199993768817],[9.884781707519167,5.525877518198783],[9.501198645629916,5.417473609403999],[9.159309394815585,5.384118560544067],[8.83409766843122,5.259037127319303],[8.583934801981709,5.158971980739494],[8.267061837812326,5.0839231208046485],[7.958527635857929,5.0839231208046485],[7.624977147258581,5.158971980739494],[7.3648778062208775,5.221539966134607]]}},{"type":"Feature","id":"roads-9","properties":{"id":10,"name":"High Road","size":2,"continent":"Westeros","layer":"roads","fid":"roads-9","slug":"high-road"},"geometry":{"type":"LineString","coordinates":[[17.34014956308152,9.819042265315353],[17.556442945304187,9.928743967710155],[17.69820190295891,9.970437778785069],[17.814944573968685,10.128874260869758],[17.88165467168855,10.278971980739463],[18.173511349212983,10.379037127319272],[18.406996691232525,10.379037127319272],[18.715530893186923,10.362359602889306],[18.932338710776502,10.362359602889306],[19.115791479506143,10.429069700609176],[19.22419538830093,10.595844944908848],[19.307583010450767,10.762620189208526],[19.315921772665753,10.87102409800331],[19.390970632600606,10.946072957938163],[19.51605206582536,11.03779934230299],[19.6494722612651,11.16288077552774],[19.71618235898497,11.321317257612428],[19.78289245670484,11.463076215267158],[19.867841375944096,11.669256605229542],[19.94132893878953,11.82998175272644],[19.96634522543448,11.871675563801361],[19.94132893878953,11.921708137091258],[19.991361512079433,11.971740710381162],[19.949667701004515,12.071805856960971],[19.942597510890124,12.211238583588248]]}},{"type":"Feature","id":"roads-10","properties":{"id":11,"name":"Kingsroad","size":2,"continent":"Westeros","layer":"roads","fid":"roads-10","slug":"kingsroad"},"geometry":{"type":"LineString","coordinates":[[17.34014956308152,9.819042265315353],[17.32295760328464,10.062164163149887],[17.21455369448985,10.237278169664542],[16.614162815011024,11.012783055658026],[15.588495062568025,12.188548527970731],[15.229928287323727,12.622164163149883],[15.01312046973415,13.005747225039137],[14.921394085369327,13.431024098003306],[14.94641037201428,13.697864488882779],[15.029797994164117,14.148157648491903],[15.129863140743922,14.573434521456072],[15.271622098398643,15.007050156635223],[15.221589525108744,15.46568207845933],[15.021459231949134,16.007701622433274],[14.888039036509396,16.407962208752494],[14.85468398764946,16.733173935136854],[14.921394085369329,17.166789570316006],[14.913055323154348,17.77551921200982],[14.89637779872438,18.692783055658026],[14.838006463219493,19.33486774621177],[14.838006463219493,19.84353224132578],[14.821802267087199,20.154077921603744],[14.846345225434476,20.577343316244345],[14.913055323154344,20.91923256705868],[14.871361512079428,21.678059928622197],[14.762957603284638,22.628678821130336],[14.612859883414936,23.51258761591862],[14.429407114685292,24.51323908171666],[14.304325681460536,25.146985010055424],[14.220938059310699,25.555584358589627],[14.270970632600601,25.889134847188974],[14.412729590255323,26.314411720153142],[14.560155794776101,26.611139077566936]]}},{"type":"Feature","id":"roads-11","properties":{"id":12,"name":"Unnamed road","size":1,"continent":"Westeros","layer":"roads","fid":"roads-11","slug":"unnamed-road"},"geometry":{"type":"LineString","coordinates":[[14.560155794776101,26.611139077566936],[14.967257277551743,27.681968723410463],[15.242436430646206,28.165616931879516],[15.525954345955652,28.524183707123814],[16.609993433903536,29.733304228296454],[17.477224704261843,30.60053549865476],[18.002566723805813,31.134216280413717],[18.23605206582536,31.39271790907821],[18.386149785695064,31.71792963546258],[18.461198645629917,31.951414977482123],[18.44452112119995,32.10151269735183],[18.502892456704835,32.18073093839418],[18.48621493227487,32.318320514941405],[18.548755648887244,32.48092637813359],[18.652990176574544,32.806138104517956],[18.652990176574544,32.95206644328017],[18.769732847584315,33.22724559637463],[18.81559603976673,33.54411856054401],[18.819765420874223,34.036105531228046],[18.886475518594093,34.24457458660264],[18.89481428080908,34.42802735533228],[18.88199484634336,34.6007009999237],[18.853961295738596,34.89038102283956]]}},{"type":"Feature","id":"roads-12","properties":{"id":13,"name":"Unnamed road","size":2,"continent":"Essos","layer":"roads","fid":"roads-12","slug":"unnamed-road"},"geometry":{"type":"LineString","coordinates":[[31.127984202189584,4.632835403434626],[35.09940387119733,5.595320640864728],[38.31391767387654,8.76311185920268],[44.90758301045076,4.696170677807878],[42.07240385735629,2.6114801240619414]]}},{"type":"Feature","id":"roads-13","properties":{"id":14,"name":"Unnamed road","size":2,"continent":"Essos","layer":"roads","fid":"roads-13","slug":"unnamed-road"},"geometry":{"type":"LineString","coordinates":[[42.37644638234977,-8.166816576855638],[42.62276216354523,-8.44571857300648],[43.364912000678785,-8.70422020167097],[43.63795615956399,-9.213402466100035],[46.95057975312179,-8.362330950856638],[47.18406509514132,-8.303959615351758],[47.35917910165598,-8.337314664211704],[47.58432568146054,-8.395685999716584],[51.36587160960967,-12.423244010345122],[51.903804508822105,-12.214839094179133],[53.99168084958891,-11.362641345798352],[56.53338943775387,-11.647649110280085],[55.869928740107866,-18.53455804218291],[52.889027859135,-16.30121851067031],[53.00452112119996,-14.124415641410394],[51.89546574660712,-12.198161569749153]]}},{"type":"Feature","id":"roads-14","properties":{"id":15,"name":"Unnamed road","size":2,"continent":"Essos","layer":"roads","fid":"roads-14","slug":"unnamed-road"},"geometry":{"type":"LineString","coordinates":[[51.36587160960967,-12.423244010345122],[49.844130241721125,-13.157119224472282]]}},{"type":"Feature","id":"roads-15","properties":{"id":16,"name":"Unnamed road","size":2,"continent":"Essos","layer":"roads","fid":"roads-15","slug":"unnamed-road"},"geometry":{"type":"LineString","coordinates":[[56.53338943775387,-11.647649110280085],[57.54080776615109,-11.355946586035806],[59.13116512712834,-13.21752794414666]]}},{"type":"Feature","id":"roads-16","properties":{"id":17,"name":"Unnamed road","size":2,"continent":"Essos","layer":"roads","fid":"roads-16","slug":"unnamed-road"},"geometry":{"type":"LineString","coordinates":[[57.54080776615109,-11.355946586035806],[62.193837082112005,-10.130148540433204]]}},{"type":"Feature","id":"roads-17","properties":{"id":18,"name":"Unnamed road","size":1,"continent":"Essos","layer":"roads","fid":"roads-17","slug":"unnamed-road"},"geometry":{"type":"LineString","coordinates":[[67.13007156635337,-9.610544433000776],[67.18458626777975,-9.796598051833847],[67.12204555116737,-9.946695771703553],[67.02614978569507,-10.005067107208433],[67.03865792901753,-10.150995445970658],[66.9636090690827,-10.284415641410398],[66.81351134921297,-10.447021504602574],[66.7509706326006,-10.538747888967393],[66.75514001370809,-10.701353752159577],[66.70927682152568,-10.847282090921794],[66.58419538830093,-11.009887954113978],[66.39657323846379,-11.114122481801267],[66.17142665865923,-11.205848866166093],[65.84987275540263,-11.245834884945147],[65.69611721240516,-11.389301634895737],[65.54185011142796,-11.501874924798017],[65.54185011142796,-11.693666455742644],[65.69611721240516,-11.893796748902254],[65.77116607234001,-12.085588279846874],[65.72947226126509,-12.285718573006484],[65.80035174009245,-12.498357009488565],[65.89624750556477,-12.615099680498346],[66.03800646321949,-12.886109452485307],[66.04217584432699,-13.115425413397361],[66.00465141435956,-13.440637139781721],[65.98797388992959,-13.66578371958628],[65.88790874334978,-13.878422156068368],[65.77116607234001,-14.032689257045575],[65.79618235898496,-14.270343980172598],[65.63357649579278,-14.466304892224713],[65.62106835247032,-14.578878182127],[65.68360906908269,-14.687282090921798],[65.66276216354524,-14.870734859651435],[65.57520516028791,-15.01249381730615],[65.37924424823579,-15.108389582778472],[65.1707751928612,-15.170930299390847],[64.91542106857729,-15.23594358768942]]}},{"type":"Feature","id":"roads-18","properties":{"id":19,"name":"Unnamed road","size":1,"continent":"Essos","layer":"roads","fid":"roads-18","slug":"unnamed-road"},"geometry":{"type":"LineString","coordinates":[[52.29815759698258,-20.76816668911596],[52.96125579202568,-21.155521080279755]]}},{"type":"Feature","id":"roads-19","properties":{"id":20,"name":"Unnamed road","size":1,"continent":"Essos","layer":"roads","fid":"roads-19","slug":"unnamed-road"},"geometry":{"type":"LineString","coordinates":[[53.85414049030154,-21.746400660021138],[54.7535905172412,-22.225669652478032],[55.37073141163775,-22.15345103717631]]}},{"type":"Feature","id":"roads-20","properties":{"id":21,"name":"Unnamed road","size":1,"continent":"Essos","layer":"roads","fid":"roads-20","slug":"unnamed-road"},"geometry":{"type":"LineString","coordinates":[[55.377296740301546,-19.967196592133202],[54.73389453124982,-22.21910432381424],[54.083926993534305,-24.648275929417693]]}}]}