{"type":"FeatureCollection","features":[{"type":"Feature","id":"wall-0","properties":{"id":1,"name":"The Wall","layer":"wall","fid":"wall-0","slug":"the-wall"},"geometry":{"type":"LineString","coordinates":[[20.71819241095518,34.7922635957229],[19.86396115424407,34.87863253266711],[19.057191314041,34.93625894982447],[18.455315401508546,35.03870591365978],[17.763798395620196,35.15395874797451],[17.520486856511333,35.19237635941275],[17.347607605039247,35.16036168321421],[17.13631074212892,35.077123525098024],[17.00825203733478,35.064317654618606],[16.790552239184745,35.12194407177597],[16.643284728671485,35.1475558127348],[16.393570254322917,35.14115287749509]]}}]}